{"type": "FeatureCollection", "properties": {"source": "Natural Earth 1:10m Admin-0 countries v4.1.0 via world-atlas@2 (countries-10m.json), public domain", "crs": "EPSG:4326 (lon, lat degrees)"}, "features": [{"type": "Feature", "properties": {"name_en": "Finland", "name_zh": "芬蘭", "iso_n3": "246"}, "geometry": {"type": "MultiPolygon", "coordinates": [[[[21.63442, 60.1156], [21.62722, 60.10715], [21.61282, 60.10209], [21.59842, 60.10209], [21.57322, 60.10715], [21.56242, 60.10715], [21.53362, 60.10209], [21.52282, 60.09702], [21.51562, 60.09702], [21.50482, 60.10378], [21.49401, 60.11053], [21.48321, 60.1156], [21.49761, 60.12066], [21.51922, 60.12235], [21.55882, 60.12235], [21.54802, 60.13417], [21.53362, 60.13755], [21.49761, 60.13586], [21.53002, 60.1595], [21.56962, 60.16963], [21.61282, 60.16963], [21.65602, 60.15612], [21.64882, 60.1443], [21.63802, 60.13924], [21.61282, 60.12911], [21.63082, 60.12911], [21.63802, 60.12404], [21.63442, 60.1156]]], [[[21.35721, 60.1747], [21.32481, 60.17639], [21.31041, 60.17976], [21.29961, 60.18652], [21.28881, 60.19158], [21.27081, 60.18989], [21.28521, 60.2034], [21.30681, 60.21016], [21.35361, 60.21185], [21.36801, 60.19665], [21.39321, 60.19158], [21.44721, 60.18989], [21.44721, 60.18314], [21.40761, 60.18483], [21.39321, 60.17807], [21.38601, 60.16288], [21.37881, 60.16288], [21.37161, 60.16963], [21.35721, 60.1747]]], [[[21.56242, 60.22704], [21.56242, 60.24055], [21.56962, 60.25575], [21.58762, 60.26926], [21.60562, 60.26926], [21.60562, 60.26081], [21.59842, 60.25744], [21.60202, 60.25406], [21.61642, 60.25575], [21.62722, 60.25237], [21.62002, 60.24393], [21.60922, 60.23549], [21.60562, 60.22873], [21.60202, 60.22198], [21.59122, 60.22198], [21.58762, 60.22198], [21.57682, 60.22198], [21.56242, 60.22704]]], [[[21.29601, 60.37733], [21.30321, 60.38408], [21.30681, 60.38915], [21.32121, 60.39083], [21.33921, 60.38408], [21.35361, 60.37057], [21.35721, 60.35875], [21.35361, 60.352], [21.34641, 60.35369], [21.33921, 60.35369], [21.33201, 60.35537], [21.33561, 60.36382], [21.33201, 60.36551], [21.32481, 60.36719], [21.30321, 60.36382], [21.29601, 60.37057], [21.29601, 60.37733]]], [[[21.44721, 60.49384], [21.43281, 60.48877], [21.42921, 60.48033], [21.44361, 60.47189], [21.41841, 60.47695], [21.39321, 60.49046], [21.37161, 60.50903], [21.36081, 60.53268], [21.34641, 60.52254], [21.33561, 60.51917], [21.32841, 60.52592], [21.32481, 60.54281], [21.33561, 60.558], [21.35361, 60.56138], [21.39321, 60.55969], [21.41121, 60.54281], [21.46161, 60.53943], [21.48321, 60.52592], [21.47601, 60.52592], [21.47601, 60.52423], [21.47241, 60.52423], [21.46161, 60.52592], [21.45801, 60.51579], [21.45801, 60.50735], [21.45801, 60.4989], [21.46161, 60.49215], [21.44721, 60.49384]]], [[[21.30321, 60.51917], [21.30681, 60.50903], [21.32481, 60.48202], [21.31761, 60.48202], [21.29961, 60.48708], [21.26721, 60.49046], [21.24921, 60.4989], [21.26001, 60.51917], [21.25281, 60.53099], [21.23841, 60.54112], [21.22761, 60.55969], [21.24921, 60.55969], [21.27801, 60.54281], [21.30321, 60.51917]]], [[[21.24201, 60.62892], [21.24921, 60.63568], [21.25281, 60.64412], [21.26001, 60.6475], [21.27081, 60.64243], [21.27081, 60.63399], [21.27441, 60.62724], [21.28161, 60.62048], [21.29241, 60.61542], [21.28161, 60.60022], [21.27801, 60.58671], [21.28161, 60.57489], [21.29961, 60.57489], [21.29961, 60.56814], [21.28161, 60.56645], [21.27441, 60.5732], [21.27081, 60.58164], [21.26361, 60.5884], [21.24561, 60.59009], [21.23481, 60.59346], [21.22401, 60.60191], [21.21321, 60.6171], [21.22041, 60.62217], [21.24201, 60.62892]]], [[[21.18801, 60.85688], [21.18801, 60.86026], [21.20601, 60.86364], [21.22041, 60.85857], [21.22401, 60.85013], [21.22761, 60.84675], [21.23481, 60.84844], [21.24201, 60.84844], [21.24561, 60.84675], [21.25281, 60.84675], [21.26001, 60.8535], [21.26721, 60.85182], [21.26721, 60.83831], [21.26361, 60.82986], [21.24921, 60.83324], [21.20961, 60.84506], [21.20601, 60.84337], [21.20241, 60.84506], [21.20241, 60.84844], [21.19521, 60.85182], [21.18801, 60.85688]]], [[[21.30681, 60.91936], [21.31401, 60.92274], [21.28161, 60.943], [21.26361, 60.94975], [21.24201, 60.95144], [21.27081, 60.96833], [21.28521, 60.97171], [21.30321, 60.97171], [21.32121, 60.95651], [21.33561, 60.94638], [21.37521, 60.93118], [21.35361, 60.91936], [21.33921, 60.91598], [21.32841, 60.91092], [21.32481, 60.88896], [21.31761, 60.88052], [21.29601, 60.87883], [21.27441, 60.8839], [21.26361, 60.88221], [21.23121, 60.88221], [21.21681, 60.8839], [21.20241, 60.88896], [21.22761, 60.8991], [21.27801, 60.88896], [21.29961, 60.89572], [21.29601, 60.8991], [21.29241, 60.90247], [21.29241, 60.90585], [21.29241, 60.90923], [21.29601, 60.9126], [21.30681, 60.91936]]], [[[21.35361, 61.19797], [21.35721, 61.19966], [21.35721, 61.20304], [21.36441, 61.20811], [21.37881, 61.21486], [21.38961, 61.20979], [21.38601, 61.20135], [21.38961, 61.19291], [21.42201, 61.17602], [21.42921, 61.17265], [21.43281, 61.17096], [21.42201, 61.17265], [21.38961, 61.18109], [21.36801, 61.17602], [21.35361, 61.17602], [21.34641, 61.17771], [21.35001, 61.17771], [21.34641, 61.18109], [21.34281, 61.19122], [21.34641, 61.19629], [21.35361, 61.19797]]], [[[21.47241, 61.63025], [21.48321, 61.64038], [21.52282, 61.63363], [21.52642, 61.62856], [21.52282, 61.62518], [21.51562, 61.62518], [21.51202, 61.62181], [21.50842, 61.61843], [21.50122, 61.61843], [21.47961, 61.62012], [21.46161, 61.62687], [21.46161, 61.62856], [21.47241, 61.63025]]], [[[21.15561, 62.9676], [21.15921, 62.97605], [21.15201, 62.97942], [21.14121, 62.98449], [21.13041, 62.99293], [21.13041, 63.00137], [21.13761, 63.00644], [21.14481, 63.00982], [21.15201, 63.00982], [21.15561, 63.00644], [21.15921, 63.00475], [21.18441, 62.99969], [21.19521, 62.99462], [21.20601, 62.98618], [21.21681, 62.97436], [21.22041, 62.96085], [21.22041, 62.95072], [21.21681, 62.94734], [21.20961, 62.94565], [21.19161, 62.95409], [21.18441, 62.95072], [21.16641, 62.94565], [21.14841, 62.95409], [21.13761, 62.96254], [21.13761, 62.9676], [21.14121, 62.9676], [21.14841, 62.96591], [21.15201, 62.96423], [21.15561, 62.9676]]], [[[21.29241, 63.17868], [21.29241, 63.17192], [21.29961, 63.17023], [21.31761, 63.16517], [21.30321, 63.15672], [21.28521, 63.15166], [21.24201, 63.14997], [21.23121, 63.15841], [21.22041, 63.17023], [21.20601, 63.18374], [21.18801, 63.19218], [21.17721, 63.18881], [21.16281, 63.18205], [21.14841, 63.18205], [21.13401, 63.19894], [21.15561, 63.19894], [21.15561, 63.20569], [21.14121, 63.21076], [21.11241, 63.22764], [21.10161, 63.23609], [21.09801, 63.24622], [21.08001, 63.27661], [21.08001, 63.28843], [21.11961, 63.27155], [21.15921, 63.27324], [21.19881, 63.27999], [21.24201, 63.28168], [21.24201, 63.27492], [21.22761, 63.27155], [21.21681, 63.2631], [21.19521, 63.23946], [21.19881, 63.23102], [21.19881, 63.22933], [21.19521, 63.22596], [21.20961, 63.22089], [21.26361, 63.2192], [21.27081, 63.21751], [21.27801, 63.21245], [21.28521, 63.21076], [21.29601, 63.21582], [21.29961, 63.22258], [21.29601, 63.22933], [21.28881, 63.2344], [21.29241, 63.23946], [21.31401, 63.25128], [21.35721, 63.26142], [21.39681, 63.26142], [21.42201, 63.24622], [21.41481, 63.23271], [21.41481, 63.22089], [21.41841, 63.20907], [21.42921, 63.19894], [21.40401, 63.19218], [21.37881, 63.1905], [21.36441, 63.19387], [21.37881, 63.20569], [21.36441, 63.20569], [21.29241, 63.17868]]], [[[21.37521, 63.34922], [21.37521, 63.33402], [21.35721, 63.31545], [21.31761, 63.28843], [21.31401, 63.30363], [21.30681, 63.30532], [21.29241, 63.30194], [21.27801, 63.30194], [21.22761, 63.32896], [21.23481, 63.33234], [21.23841, 63.33402], [21.24921, 63.33571], [21.27801, 63.34078], [21.31041, 63.35598], [21.34641, 63.36442], [21.37521, 63.34922]]], [[[21.97642, 60.13079], [21.99082, 60.13079], [21.99802, 60.12911], [22.01242, 60.12235], [22.00882, 60.1156], [21.98722, 60.11222], [21.97282, 60.11222], [21.94402, 60.11391], [21.94042, 60.1156], [21.92962, 60.12404], [21.93682, 60.13079], [21.95122, 60.13586], [21.96202, 60.13755], [21.97642, 60.13079]]], [[[21.86842, 60.15612], [21.79282, 60.15612], [21.82522, 60.14937], [21.81802, 60.14599], [21.80722, 60.14261], [21.79642, 60.14093], [21.80002, 60.13924], [21.80722, 60.13586], [21.78202, 60.12404], [21.75322, 60.1156], [21.72082, 60.11391], [21.69562, 60.12235], [21.70282, 60.12742], [21.70642, 60.12911], [21.70282, 60.14261], [21.71722, 60.14768], [21.72082, 60.14937], [21.72082, 60.15612], [21.70642, 60.16119], [21.70642, 60.17132], [21.72442, 60.18314], [21.74242, 60.18989], [21.80002, 60.19665], [21.85402, 60.19665], [21.88642, 60.18314], [21.88642, 60.17639], [21.87562, 60.17639], [21.86482, 60.17639], [21.85402, 60.1747], [21.84682, 60.16963], [21.85402, 60.16794], [21.86842, 60.15612]]], [[[22.02682, 60.20509], [22.04122, 60.21185], [22.05922, 60.21185], [22.07362, 60.19665], [22.01242, 60.16963], [22.01602, 60.16794], [22.03042, 60.15781], [22.03762, 60.15612], [22.00882, 60.13755], [21.97642, 60.13586], [21.95122, 60.14937], [21.93682, 60.17639], [21.95122, 60.18145], [21.99802, 60.18989], [22.02682, 60.20509]]], [[[22.29322, 60.24562], [22.29682, 60.22198], [22.26802, 60.19665], [22.23202, 60.18483], [22.21042, 60.20509], [22.22122, 60.22367], [22.24642, 60.24224], [22.27162, 60.25237], [22.29322, 60.24562]]], [[[22.28962, 60.27263], [22.28242, 60.26926], [22.27882, 60.26588], [22.26442, 60.26081], [22.26082, 60.25913], [22.21402, 60.25237], [22.19962, 60.25406], [22.21762, 60.26588], [22.20322, 60.27601], [22.18162, 60.28108], [22.15642, 60.28108], [22.14202, 60.27939], [22.18162, 60.27939], [22.16362, 60.25913], [22.13842, 60.2625], [22.10962, 60.27095], [22.08802, 60.26926], [22.08082, 60.26926], [22.07722, 60.28277], [22.08442, 60.30134], [22.10602, 60.31316], [22.13122, 60.31485], [22.25002, 60.31147], [22.32202, 60.29627], [22.34002, 60.28614], [22.33642, 60.27432], [22.33282, 60.26926], [22.31122, 60.26588], [22.30402, 60.26757], [22.29682, 60.27095], [22.28962, 60.27263]]], [[[21.99802, 60.29627], [22.00882, 60.29796], [22.00522, 60.2929], [21.99442, 60.28783], [21.98362, 60.28445], [21.97642, 60.28445], [21.97282, 60.28614], [21.98002, 60.28952], [21.99802, 60.29627]]], [[[21.97282, 60.30978], [21.97642, 60.30303], [21.95842, 60.28108], [21.94402, 60.2777], [21.92602, 60.2777], [21.90802, 60.27939], [21.89722, 60.28952], [21.88642, 60.28952], [21.87562, 60.30472], [21.87922, 60.30978], [21.89362, 60.30978], [21.90802, 60.30978], [21.92602, 60.31316], [21.95842, 60.31147], [21.97282, 60.30978]]], [[[22.30042, 60.36719], [22.28962, 60.35875], [22.20322, 60.34355], [22.19242, 60.34187], [22.17082, 60.34355], [22.15642, 60.352], [22.15642, 60.35875], [22.16362, 60.36213], [22.25722, 60.37395], [22.28602, 60.37564], [22.30042, 60.36719]]], [[[22.10602, 60.35369], [22.12042, 60.37226], [22.13842, 60.37901], [22.14562, 60.3807], [22.20682, 60.38239], [22.20682, 60.37564], [22.11322, 60.35369], [22.10602, 60.35369]]], [[[21.90082, 60.33849], [21.90082, 60.34187], [21.87922, 60.35031], [21.86842, 60.35369], [21.83602, 60.35706], [21.81442, 60.36382], [21.79282, 60.37395], [21.78562, 60.38577], [21.79282, 60.39759], [21.80722, 60.40603], [21.82882, 60.40941], [21.84682, 60.40941], [21.84682, 60.41616], [21.80002, 60.44318], [21.80362, 60.45669], [21.80722, 60.46682], [21.81802, 60.47189], [21.83242, 60.47189], [21.84682, 60.46344], [21.89362, 60.44993], [21.90082, 60.4398], [21.90442, 60.43136], [21.91162, 60.42629], [21.92242, 60.42461], [21.93322, 60.42292], [21.95122, 60.40265], [21.95122, 60.3959], [21.92242, 60.40097], [21.90802, 60.40097], [21.89362, 60.3959], [21.90802, 60.39083], [21.93682, 60.38239], [21.95122, 60.37564], [21.94402, 60.36888], [21.97642, 60.36888], [21.98722, 60.36551], [21.99802, 60.35537], [21.97282, 60.34862], [21.96202, 60.34693], [21.98002, 60.34187], [21.98722, 60.34187], [21.99802, 60.34187], [21.99802, 60.33342], [21.98002, 60.32836], [21.96202, 60.32836], [21.94042, 60.33005], [21.92242, 60.33342], [21.91882, 60.33342], [21.91522, 60.33005], [21.90802, 60.32667], [21.90082, 60.32667], [21.90082, 60.33005], [21.90082, 60.33849]]], [[[21.71362, 60.4702], [21.69922, 60.46007], [21.68842, 60.455], [21.68122, 60.46513], [21.69202, 60.48371], [21.71362, 60.50903], [21.74242, 60.52592], [21.76402, 60.52592], [21.76042, 60.51241], [21.74962, 60.50228], [21.72442, 60.48202], [21.71362, 60.4702]]], [[[22.07362, 63.31207], [22.07002, 63.31883], [22.07722, 63.3222], [22.09162, 63.32389], [22.10962, 63.32896], [22.12402, 63.32558], [22.13122, 63.32558], [22.13842, 63.3222], [22.14922, 63.31545], [22.15642, 63.31038], [22.16362, 63.31207], [22.16362, 63.31714], [22.17082, 63.31883], [22.17802, 63.31714], [22.18522, 63.31545], [22.18882, 63.31038], [22.19602, 63.31038], [22.20322, 63.31207], [22.20682, 63.31714], [22.21042, 63.32558], [22.21402, 63.33234], [22.22122, 63.33909], [22.22482, 63.34078], [22.23202, 63.33909], [22.23562, 63.33065], [22.23562, 63.32558], [22.23922, 63.31376], [22.24642, 63.30701], [22.24282, 63.30194], [22.23562, 63.2935], [22.22122, 63.27999], [22.21042, 63.27324], [22.18882, 63.27324], [22.15642, 63.28843], [22.11322, 63.28337], [22.11322, 63.28168], [22.13842, 63.2783], [22.16002, 63.27324], [22.16362, 63.2631], [22.15642, 63.25635], [22.14922, 63.25635], [22.14562, 63.25466], [22.14562, 63.25128], [22.13482, 63.25128], [22.08442, 63.26142], [22.08082, 63.26648], [22.08442, 63.26986], [22.07722, 63.27492], [22.06642, 63.2783], [22.07002, 63.28337], [22.07722, 63.28674], [22.08442, 63.28843], [22.08802, 63.29519], [22.08442, 63.30363], [22.07362, 63.31207]]], [[[21.99802, 63.28843], [21.99442, 63.28506], [21.99442, 63.27999], [21.99082, 63.2783], [21.98362, 63.27661], [21.98002, 63.27999], [21.97282, 63.28674], [21.97642, 63.29856], [21.99082, 63.31038], [22.00162, 63.31376], [22.02322, 63.30701], [22.03042, 63.3087], [22.02682, 63.31376], [22.01242, 63.32052], [22.00882, 63.32558], [22.01242, 63.32558], [22.01962, 63.32558], [22.02322, 63.32389], [22.02682, 63.3222], [22.03402, 63.3222], [22.05922, 63.30194], [22.05922, 63.29519], [22.04842, 63.28168], [22.03042, 63.27661], [22.01242, 63.2783], [22.00882, 63.28168], [22.00882, 63.28843], [22.00522, 63.29181], [21.99802, 63.28843]]], [[[21.98362, 63.37286], [21.98722, 63.37793], [21.99802, 63.38468], [22.01602, 63.38468], [22.03042, 63.38299], [22.04482, 63.38806], [22.05922, 63.38806], [22.06642, 63.38637], [22.07002, 63.38468], [22.08082, 63.38299], [22.08802, 63.38468], [22.09522, 63.38299], [22.09522, 63.37962], [22.08802, 63.37793], [22.08082, 63.37624], [22.08082, 63.37286], [22.08442, 63.3678], [22.07722, 63.35935], [22.05922, 63.35766], [22.02682, 63.36611], [22.01242, 63.36442], [22.00162, 63.35429], [21.99802, 63.34922], [21.98362, 63.34078], [21.96562, 63.33234], [21.95842, 63.33234], [21.94762, 63.33402], [21.94762, 63.3374], [21.94762, 63.34078], [21.95122, 63.34416], [21.95482, 63.34922], [21.96202, 63.35429], [21.96562, 63.35935], [21.97282, 63.36442], [21.97642, 63.36948], [21.98362, 63.37286]]], [[[22.43362, 59.86738], [22.45882, 59.87244], [22.48042, 59.87413], [22.48762, 59.87582], [22.49842, 59.87751], [22.50923, 59.87582], [22.51283, 59.87413], [22.50563, 59.86906], [22.44442, 59.85218], [22.42642, 59.8488], [22.41562, 59.85218], [22.41562, 59.86062], [22.42282, 59.86569], [22.42642, 59.86569], [22.43362, 59.86738]]], [[[23.84844, 59.95518], [23.85564, 59.96362], [23.87004, 59.97207], [23.89164, 59.97713], [23.91684, 59.97376], [23.92404, 59.96869], [23.92044, 59.967], [23.92044, 59.96025], [23.90964, 59.95349], [23.89524, 59.95349], [23.89524, 59.9518], [23.89524, 59.95012], [23.88444, 59.94843], [23.87004, 59.94674], [23.85564, 59.95349], [23.85204, 59.9518], [23.84844, 59.95518]]], [[[22.85843, 60.0109], [22.85123, 60.02779], [22.85483, 60.0413], [22.88363, 60.04299], [22.88363, 60.04805], [22.87643, 60.05143], [22.86203, 60.05143], [22.85483, 60.05481], [22.86203, 60.06325], [22.88723, 60.06832], [22.91603, 60.06832], [22.92683, 60.06494], [22.91963, 60.05818], [22.91603, 60.04974], [22.91243, 60.0413], [22.90523, 60.03792], [22.90163, 60.03792], [22.89443, 60.03286], [22.88363, 60.01935], [22.88003, 60.0109], [22.87283, 60.00584], [22.85843, 60.0109]]], [[[22.40842, 60.00922], [22.39402, 60.00584], [22.38682, 59.99402], [22.38322, 59.99233], [22.37242, 60.00415], [22.35802, 60.02104], [22.35442, 60.03286], [22.35082, 60.04805], [22.34722, 60.06325], [22.35442, 60.07507], [22.36882, 60.08014], [22.38322, 60.07507], [22.38322, 60.06156], [22.38682, 60.05143], [22.40842, 60.05312], [22.40122, 60.07507], [22.41202, 60.0852], [22.43002, 60.08182], [22.44802, 60.06663], [22.44802, 60.02948], [22.44802, 60.01259], [22.44442, 59.9974], [22.43722, 59.9974], [22.42642, 60.00753], [22.40842, 60.00922]]], [[[22.89803, 60.08182], [22.86923, 60.08182], [22.86203, 60.08182], [22.84403, 60.08182], [22.84403, 60.0852], [22.85483, 60.09196], [22.86563, 60.1004], [22.87283, 60.11053], [22.88003, 60.11391], [22.89083, 60.11897], [22.91603, 60.12573], [22.93763, 60.12404], [22.94843, 60.11897], [22.95923, 60.11053], [22.96283, 60.10378], [22.96283, 60.09702], [22.95563, 60.08858], [22.94843, 60.0852], [22.93763, 60.08351], [22.93043, 60.0852], [22.93403, 60.09027], [22.92683, 60.09027], [22.91603, 60.0852], [22.89803, 60.08182]]], [[[22.87283, 60.21522], [22.86563, 60.20678], [22.84043, 60.20171], [22.83323, 60.19327], [22.83323, 60.18145], [22.84043, 60.16963], [22.83323, 60.16963], [22.82963, 60.16794], [22.82603, 60.16457], [22.81883, 60.16288], [22.82603, 60.16119], [22.84043, 60.15612], [22.83683, 60.14599], [22.83323, 60.14261], [22.84763, 60.11053], [22.81163, 60.08182], [22.72883, 60.04636], [22.72883, 60.03961], [22.73963, 60.03961], [22.74683, 60.03792], [22.75763, 60.03286], [22.74683, 60.0261], [22.73603, 60.00922], [22.72883, 60.00415], [22.70363, 60.00753], [22.69643, 60.00584], [22.68203, 59.9974], [22.66763, 60.01597], [22.65323, 60.03286], [22.64603, 60.02272], [22.61363, 60.00246], [22.61003, 60.00077], [22.60643, 59.99571], [22.60643, 59.98389], [22.59923, 59.98389], [22.60283, 59.99908], [22.59923, 60.00753], [22.59203, 60.0109], [22.57763, 60.00415], [22.57403, 60.01766], [22.58123, 60.02441], [22.58843, 60.03286], [22.59203, 60.04636], [22.58123, 60.03792], [22.54523, 60.02104], [22.53083, 60.00753], [22.48762, 60.00246], [22.46962, 59.9974], [22.46962, 60.02441], [22.47322, 60.03623], [22.47682, 60.04636], [22.47322, 60.05818], [22.47322, 60.07169], [22.47682, 60.08182], [22.47322, 60.09027], [22.46242, 60.09702], [22.43362, 60.10546], [22.42282, 60.1156], [22.44442, 60.11897], [22.48042, 60.13248], [22.50203, 60.13586], [22.59923, 60.13586], [22.59923, 60.14261], [22.41562, 60.14937], [22.42642, 60.17132], [22.43362, 60.20003], [22.44802, 60.22198], [22.47682, 60.22535], [22.45522, 60.20003], [22.45162, 60.18821], [22.46602, 60.18314], [22.56683, 60.19327], [22.60283, 60.20678], [22.62083, 60.21185], [22.81523, 60.22704], [22.84403, 60.24224], [22.86563, 60.26588], [22.89083, 60.28614], [22.91963, 60.29627], [22.95563, 60.2929], [22.94843, 60.27095], [22.93043, 60.25744], [22.90523, 60.24731], [22.88363, 60.23549], [22.87643, 60.22535], [22.87283, 60.21522]]], [[[22.29322, 60.15275], [22.29322, 60.15612], [22.28962, 60.16457], [22.29322, 60.16963], [22.29682, 60.17301], [22.30042, 60.17639], [22.30042, 60.18145], [22.30402, 60.18821], [22.31482, 60.19158], [22.37602, 60.2034], [22.38682, 60.19496], [22.36882, 60.17807], [22.34362, 60.16963], [22.31842, 60.16457], [22.31842, 60.1595], [22.33282, 60.15443], [22.33642, 60.14768], [22.32202, 60.14768], [22.30042, 60.14768], [22.28962, 60.14937], [22.29322, 60.15275]]], [[[25.86446, 60.20509], [25.85366, 60.20003], [25.83566, 60.19665], [25.82126, 60.19665], [25.81406, 60.20847], [25.82126, 60.21691], [25.83926, 60.2186], [25.87526, 60.21691], [25.86446, 60.20509]]], [[[25.63406, 60.2186], [25.63766, 60.20509], [25.61246, 60.21185], [25.60166, 60.21522], [25.60886, 60.22198], [25.62326, 60.23886], [25.59086, 60.24224], [25.56926, 60.25744], [25.56566, 60.2777], [25.58006, 60.29627], [25.59806, 60.29121], [25.68446, 60.24562], [25.67726, 60.23886], [25.65926, 60.2338], [25.64486, 60.22873], [25.63406, 60.2186]]], [[[22.43002, 60.33342], [22.44442, 60.33342], [22.45882, 60.33342], [22.46962, 60.33173], [22.47682, 60.3216], [22.45522, 60.30809], [22.42642, 60.29965], [22.39402, 60.2929], [22.36882, 60.2929], [22.37602, 60.29965], [22.37962, 60.30641], [22.38682, 60.3216], [22.36882, 60.31485], [22.35082, 60.31316], [22.31122, 60.3216], [22.32922, 60.3368], [22.35082, 60.34862], [22.37242, 60.35369], [22.39762, 60.35537], [22.40122, 60.35369], [22.40122, 60.34862], [22.40122, 60.34355], [22.40122, 60.34187], [22.43002, 60.33342]]], [[[26.55927, 60.41616], [26.57367, 60.42123], [26.58087, 60.42798], [26.58087, 60.43474], [26.58447, 60.44149], [26.59167, 60.44656], [26.60247, 60.44656], [26.64567, 60.43136], [26.65287, 60.42629], [26.64927, 60.42123], [26.63487, 60.41447], [26.57367, 60.40603], [26.55927, 60.39759], [26.54847, 60.37901], [26.53767, 60.37733], [26.52687, 60.38577], [26.50887, 60.40265], [26.51247, 60.4111], [26.55927, 60.41616]]], [[[22.80083, 63.73759], [22.79363, 63.74097], [22.78283, 63.74435], [22.77563, 63.74097], [22.77923, 63.73422], [22.77563, 63.72746], [22.76483, 63.72746], [22.75763, 63.7224], [22.73963, 63.72071], [22.71803, 63.72746], [22.70363, 63.73591], [22.69283, 63.7511], [22.68563, 63.75448], [22.68203, 63.75786], [22.68203, 63.76292], [22.70363, 63.76968], [22.71083, 63.77305], [22.71803, 63.77812], [22.73603, 63.78487], [22.76483, 63.79163], [22.78283, 63.78994], [22.79003, 63.78319], [22.79723, 63.77812], [22.80083, 63.77643], [22.80443, 63.77812], [22.80803, 63.77981], [22.82243, 63.77981], [22.82963, 63.77643], [22.82603, 63.77305], [22.82243, 63.77137], [22.81883, 63.76968], [22.81883, 63.76292], [22.81523, 63.75617], [22.81163, 63.75279], [22.80803, 63.74773], [22.80083, 63.73759]]], [[[28.71569, 68.72734], [28.46008, 68.5416], [28.44928, 68.52978], [28.44568, 68.51458], [28.46008, 68.49094], [28.48168, 68.46223], [28.66529, 68.20388], [28.69049, 68.18362], [28.72649, 68.17349], [29.01449, 68.1279], [29.29889, 68.0823], [29.33129, 68.07217], [29.36009, 68.05698], [29.44289, 67.99112], [29.48249, 67.96073], [29.6517, 67.82395], [29.7129, 67.79187], [30.0081, 67.68549], [29.9865, 67.67198], [29.9793, 67.66185], [29.9721, 67.65003], [29.9649, 67.58417], [29.9613, 67.57235], [29.9325, 67.52676], [29.9145, 67.50819], [29.5185, 67.2988], [29.5077, 67.28867], [29.49689, 67.2701], [29.48969, 67.26334], [29.48249, 67.25659], [29.42849, 67.23295], [29.10089, 66.99148], [29.05049, 66.90705], [29.09009, 66.83782], [29.32049, 66.68078], [29.36369, 66.62675], [29.36369, 66.62506], [29.39249, 66.6048], [29.39609, 66.59636], [29.39609, 66.58622], [29.39969, 66.57609], [29.41049, 66.56765], [29.5257, 66.49166], [29.5329, 66.47478], [29.5473, 66.43256], [29.5509, 66.4123], [29.5689, 66.37853], [29.5941, 66.34645], [29.6517, 66.28735], [29.7921, 66.18097], [29.8749, 66.13369], [29.9001, 66.10836], [29.9217, 66.06783], [29.9505, 65.99185], [29.9577, 65.97327], [29.9973, 65.93106], [30.0081, 65.91586], [30.0405, 65.8652], [30.0765, 65.82299], [30.0837, 65.80441], [30.1125, 65.71154], [30.1161, 65.6879], [30.1125, 65.66595], [30.0981, 65.65582], [30.0657, 65.66088], [30.0045, 65.67777], [29.7633, 65.64738], [29.7021, 65.6288], [29.7309, 65.60854], [29.8065, 65.5849], [29.8389, 65.56464], [29.8245, 65.55113], [29.7453, 65.5106], [29.7309, 65.49709], [29.7273, 65.49203], [29.7165, 65.45488], [29.7309, 65.36538], [29.7201, 65.32992], [29.6157, 65.26913], [29.5797, 65.23536], [29.6265, 65.2151], [29.7669, 65.21679], [29.8317, 65.20497], [29.8389, 65.16613], [29.8281, 65.15938], [29.8173, 65.15262], [29.8101, 65.14587], [29.8065, 65.13574], [29.8209, 65.12729], [29.8389, 65.12561], [29.8497, 65.12223], [29.8461, 65.10872], [29.8209, 65.09352], [29.6661, 65.07833], [29.6265, 65.06144], [29.5977, 65.03442], [29.5869, 64.99221], [29.6337, 64.90778], [29.6985, 64.83855], [29.7813, 64.79633], [29.8785, 64.78451], [30.0621, 64.78451], [30.1017, 64.77607], [30.1197, 64.76763], [30.1197, 64.76087], [30.1161, 64.75412], [30.1125, 64.74399], [30.1089, 64.73217], [30.1053, 64.72541], [30.1089, 64.72035], [30.1197, 64.70853], [30.1305, 64.70177], [30.1701, 64.68151], [30.1881, 64.66294], [30.1809, 64.64267], [30.1593, 64.62579], [30.1377, 64.61565], [29.9649, 64.57851], [29.9577, 64.57513], [29.9541, 64.56837], [29.9577, 64.56669], [29.9649, 64.565], [29.9685, 64.56331], [29.9685, 64.54473], [29.9721, 64.53629], [29.9793, 64.52616], [29.9793, 64.52447], [29.9793, 64.52109], [29.9793, 64.51772], [29.9793, 64.51603], [29.9901, 64.51265], [29.9937, 64.51096], [29.9901, 64.50421], [30.0369, 64.4907], [30.0693, 64.47213], [30.0621, 64.44849], [30.0405, 64.42316], [30.0333, 64.39614], [30.0513, 64.37757], [30.0945, 64.36068], [30.1629, 64.34211], [30.3213, 64.31847], [30.3717, 64.30158], [30.4005, 64.28301], [30.4221, 64.26443], [30.4473, 64.25092], [30.50491, 64.24417], [30.53731, 64.23404], [30.55891, 64.22053], [30.55171, 64.19858], [30.53371, 64.18], [30.53371, 64.16312], [30.54451, 64.14623], [30.56251, 64.12766], [30.58771, 64.08544], [30.58051, 64.05167], [30.55171, 64.02128], [30.50851, 63.99088], [30.3285, 63.89632], [30.2673, 63.83047], [30.2025, 63.79332], [30.0513, 63.76292], [29.9973, 63.74773], [29.9793, 63.74097], [30.0009, 63.71564], [30.2421, 63.58225], [30.3789, 63.53328], [30.4401, 63.49106], [30.4617, 63.47249], [30.4869, 63.46236], [30.82171, 63.37624], [30.97651, 63.28843], [31.17811, 63.22596], [31.20331, 63.21245], [31.22491, 63.19556], [31.23211, 63.1753], [31.23571, 63.15672], [31.23931, 63.13646], [31.25011, 63.1162], [31.26451, 63.101], [31.28971, 63.08412], [31.35091, 63.06216], [31.37971, 63.04866], [31.44451, 63.00137], [31.46971, 62.99124], [31.48051, 62.98618], [31.50572, 62.9676], [31.52012, 62.94396], [31.53452, 62.92032], [31.57052, 62.90513], [31.48051, 62.82576], [31.44091, 62.78861], [31.41211, 62.7464], [31.36171, 62.65184], [31.34731, 62.62989], [31.30411, 62.59612], [31.28251, 62.57248], [31.26091, 62.5252], [31.24291, 62.50324], [31.22131, 62.49142], [31.16731, 62.47623], [31.15291, 62.46778], [31.14211, 62.45596], [31.12411, 62.43401], [30.98011, 62.35803], [30.96571, 62.3479], [30.94051, 62.31412], [30.92611, 62.3023], [30.90811, 62.29217], [30.79291, 62.25334], [30.70291, 62.21112], [30.66691, 62.1993], [30.64891, 62.19255], [30.63451, 62.1841], [30.60571, 62.15202], [30.4797, 62.06759], [30.3393, 61.99161], [30.1449, 61.84977], [29.9793, 61.72819], [29.8425, 61.66064], [29.8209, 61.64376], [29.7993, 61.60999], [29.7777, 61.5931], [29.6337, 61.51036], [29.6049, 61.49854], [29.5401, 61.48503], [29.5185, 61.4749], [29.5005, 61.4597], [29.48249, 61.43438], [29.46449, 61.41411], [29.31689, 61.33813], [29.28809, 61.31617], [29.27729, 61.30435], [29.26289, 61.29085], [29.20169, 61.24525], [29.12969, 61.21317], [28.98209, 61.16758], [28.92809, 61.14732], [28.85609, 61.11186], [28.79849, 61.09666], [28.78049, 61.08653], [28.75169, 61.0612], [28.69049, 61.02743], [28.66889, 61.01223], [28.65449, 60.99197], [28.61489, 60.96157], [28.52489, 60.94975], [28.48168, 60.93287], [28.33768, 60.85857], [28.24408, 60.79103], [28.14688, 60.75726], [28.00288, 60.66438], [27.98128, 60.64919], [27.89128, 60.6036], [27.80848, 60.55294], [27.79048, 60.56138], [27.77608, 60.5732], [27.76168, 60.57996], [27.74008, 60.57489], [27.74368, 60.57151], [27.75088, 60.56307], [27.75448, 60.55969], [27.73648, 60.55632], [27.73288, 60.5445], [27.74008, 60.53099], [27.75448, 60.51917], [27.73648, 60.5141], [27.73288, 60.51241], [27.74728, 60.50566], [27.75448, 60.50566], [27.71848, 60.48877], [27.70408, 60.48539], [27.63568, 60.49215], [27.64648, 60.50397], [27.67528, 60.51072], [27.69328, 60.51917], [27.65008, 60.52254], [27.63208, 60.52085], [27.61768, 60.51241], [27.60688, 60.50059], [27.61048, 60.49215], [27.61768, 60.48371], [27.62848, 60.47189], [27.59248, 60.47695], [27.50968, 60.5141], [27.47367, 60.50566], [27.48087, 60.50397], [27.48807, 60.50228], [27.49167, 60.49215], [27.48807, 60.48877], [27.47727, 60.48202], [27.47367, 60.47864], [27.48447, 60.47526], [27.49167, 60.4702], [27.50248, 60.46513], [27.50608, 60.45669], [27.45567, 60.46344], [27.36927, 60.49721], [27.32607, 60.50566], [27.25047, 60.50735], [27.23247, 60.51241], [27.23247, 60.52592], [27.25767, 60.5293], [27.30807, 60.52592], [27.28647, 60.53605], [27.21087, 60.55969], [27.22887, 60.57996], [27.21447, 60.58502], [27.19287, 60.57996], [27.17847, 60.56814], [27.18207, 60.55294], [27.19647, 60.53774], [27.20007, 60.52254], [27.17847, 60.51241], [27.17487, 60.52592], [27.17127, 60.5293], [27.14967, 60.52592], [27.13887, 60.5293], [27.12447, 60.54281], [27.11367, 60.54618], [27.10647, 60.54281], [27.09567, 60.5293], [27.08847, 60.52592], [27.07767, 60.5293], [27.06327, 60.54281], [27.05607, 60.54618], [27.04527, 60.54618], [27.03447, 60.54112], [27.02367, 60.53605], [27.02367, 60.5293], [27.02727, 60.51917], [27.02007, 60.5141], [27.01287, 60.50903], [26.99847, 60.48877], [26.97687, 60.48371], [26.93007, 60.48539], [26.95527, 60.46851], [26.96607, 60.45838], [26.96247, 60.44656], [26.95527, 60.44993], [26.92287, 60.46682], [26.91567, 60.47526], [26.82207, 60.45838], [26.79327, 60.45669], [26.80047, 60.46344], [26.80767, 60.4702], [26.81487, 60.48539], [26.79687, 60.48539], [26.77527, 60.48202], [26.75727, 60.47695], [26.74287, 60.46851], [26.73927, 60.46007], [26.73927, 60.44318], [26.73927, 60.43643], [26.73207, 60.43305], [26.71047, 60.42629], [26.69967, 60.41954], [26.68887, 60.41785], [26.67087, 60.42798], [26.64927, 60.44149], [26.63487, 60.44993], [26.61687, 60.45331], [26.59527, 60.45162], [26.57727, 60.44656], [26.57367, 60.43643], [26.55207, 60.43305], [26.52687, 60.4398], [26.50167, 60.45331], [26.48366, 60.46851], [26.47646, 60.48708], [26.49086, 60.4989], [26.51607, 60.50566], [26.53767, 60.51579], [26.56287, 60.54281], [26.56647, 60.54956], [26.56287, 60.5732], [26.56647, 60.58164], [26.58087, 60.59178], [26.62407, 60.61035], [26.66727, 60.60697], [26.75367, 60.57489], [26.73207, 60.61204], [26.69967, 60.64074], [26.66007, 60.65256], [26.61687, 60.64243], [26.59167, 60.62892], [26.55207, 60.59178], [26.46566, 60.50735], [26.45486, 60.47526], [26.48726, 60.44318], [26.46926, 60.42798], [26.46206, 60.42123], [26.45126, 60.41616], [26.42246, 60.41616], [26.41526, 60.4111], [26.42246, 60.3959], [26.41166, 60.39759], [26.40086, 60.40265], [26.38286, 60.41616], [26.38286, 60.40434], [26.38286, 60.39928], [26.37566, 60.3959], [26.36126, 60.3959], [26.35046, 60.39252], [26.35046, 60.38577], [26.34686, 60.37901], [26.34326, 60.37564], [26.32526, 60.38239], [26.31086, 60.39928], [26.30006, 60.41616], [26.28926, 60.42292], [26.27846, 60.42967], [26.26406, 60.44149], [26.24606, 60.45162], [26.23166, 60.44993], [26.22806, 60.43811], [26.24246, 60.42461], [26.27486, 60.40265], [26.17766, 60.4111], [26.17046, 60.40941], [26.15246, 60.39928], [26.14166, 60.3959], [26.13446, 60.40265], [26.09486, 60.42292], [26.06246, 60.43305], [26.04806, 60.43811], [26.01206, 60.46175], [25.97966, 60.47526], [25.94726, 60.48371], [25.91846, 60.48539], [25.91846, 60.47864], [25.97246, 60.46513], [25.98326, 60.45838], [26.00486, 60.4398], [26.03006, 60.43305], [26.03726, 60.42461], [26.04086, 60.41447], [26.04086, 60.40603], [26.03366, 60.40097], [26.01566, 60.40097], [26.00846, 60.40097], [26.01206, 60.38915], [26.02286, 60.3807], [26.05886, 60.36888], [26.08046, 60.35031], [26.08766, 60.34355], [26.10206, 60.34187], [26.10926, 60.33511], [26.10566, 60.32329], [26.09846, 60.31147], [26.09126, 60.30641], [26.04086, 60.29965], [26.03726, 60.32329], [25.99766, 60.35537], [26.00486, 60.36888], [25.99406, 60.36719], [25.98326, 60.36382], [25.97606, 60.35706], [25.96886, 60.35537], [25.95806, 60.35537], [25.94726, 60.35875], [25.88966, 60.38915], [25.86806, 60.39759], [25.84286, 60.40265], [25.87886, 60.37733], [25.90046, 60.36719], [25.91846, 60.36044], [25.90766, 60.34018], [25.88606, 60.31991], [25.88246, 60.30641], [25.89326, 60.29121], [25.92206, 60.26588], [25.92926, 60.24562], [25.90766, 60.24562], [25.89326, 60.24899], [25.88246, 60.25575], [25.86806, 60.26588], [25.87526, 60.27263], [25.86086, 60.28445], [25.84286, 60.28783], [25.82126, 60.28952], [25.79966, 60.2929], [25.77086, 60.31485], [25.75286, 60.31991], [25.73846, 60.31316], [25.74566, 60.29627], [25.78166, 60.28277], [25.85006, 60.26588], [25.78166, 60.25068], [25.78166, 60.24562], [25.76366, 60.24055], [25.73486, 60.24731], [25.65566, 60.2929], [25.64846, 60.29965], [25.65206, 60.31316], [25.65926, 60.32329], [25.67006, 60.32667], [25.64846, 60.33342], [25.64846, 60.34187], [25.70606, 60.34187], [25.69166, 60.36213], [25.67006, 60.36382], [25.64486, 60.35706], [25.63046, 60.34693], [25.60166, 60.33849], [25.52606, 60.32667], [25.52606, 60.3216], [25.54046, 60.31654], [25.54766, 60.30641], [25.54406, 60.2929], [25.54046, 60.27939], [25.53686, 60.27601], [25.52966, 60.27432], [25.52246, 60.27095], [25.51526, 60.25406], [25.51166, 60.24899], [25.50446, 60.24562], [25.36045, 60.24562], [25.36405, 60.26081], [25.34965, 60.26757], [25.31365, 60.27263], [25.31725, 60.26757], [25.32085, 60.25575], [25.32085, 60.25068], [25.29205, 60.24562], [25.19845, 60.24562], [25.19125, 60.24393], [25.19125, 60.24055], [25.19125, 60.22873], [25.19125, 60.22704], [25.18405, 60.22367], [25.17325, 60.22535], [25.15525, 60.23211], [25.15525, 60.22367], [25.19125, 60.21185], [25.20565, 60.20509], [25.19485, 60.20003], [25.18045, 60.20003], [25.19845, 60.18989], [25.17685, 60.18314], [25.11565, 60.17639], [25.09405, 60.17639], [25.09765, 60.18314], [25.09765, 60.18652], [25.10125, 60.18989], [25.05805, 60.17807], [25.04725, 60.16963], [25.06885, 60.16288], [25.06165, 60.15612], [25.04365, 60.15612], [25.02925, 60.14768], [25.01125, 60.15106], [24.99685, 60.16288], [25.01125, 60.16963], [25.02205, 60.18483], [25.02565, 60.20003], [25.01845, 60.21185], [25.00045, 60.21353], [24.98605, 60.20003], [24.96085, 60.15106], [24.95005, 60.1443], [24.86725, 60.14093], [24.84565, 60.1443], [24.83485, 60.15612], [24.87085, 60.16119], [24.86725, 60.17976], [24.84205, 60.19496], [24.80605, 60.18989], [24.82765, 60.16288], [24.81325, 60.15781], [24.78445, 60.14599], [24.77365, 60.14261], [24.71965, 60.13924], [24.68725, 60.13248], [24.68005, 60.13079], [24.67285, 60.12573], [24.67285, 60.11897], [24.67645, 60.10546], [24.66925, 60.1004], [24.65485, 60.1004], [24.65125, 60.10884], [24.64765, 60.12066], [24.64405, 60.12911], [24.62965, 60.13586], [24.56845, 60.15443], [24.55405, 60.15612], [24.55045, 60.15275], [24.56125, 60.14261], [24.57565, 60.13586], [24.59005, 60.13248], [24.59725, 60.12742], [24.58645, 60.1156], [24.57565, 60.10715], [24.56125, 60.10378], [24.54685, 60.1004], [24.53965, 60.08689], [24.60805, 60.1004], [24.60445, 60.09196], [24.59365, 60.0852], [24.57565, 60.07338], [24.59365, 60.06663], [24.59365, 60.05987], [24.52525, 60.03454], [24.48924, 60.00584], [24.46764, 59.99571], [24.44604, 59.99233], [24.41724, 59.99064], [24.42444, 60.00584], [24.45324, 60.03792], [24.46404, 60.04636], [24.44604, 60.04805], [24.42084, 60.03623], [24.37404, 60.00415], [24.36684, 60.02272], [24.34884, 60.01597], [24.33084, 60.00415], [24.31284, 59.9974], [24.32004, 60.01428], [24.33084, 60.02104], [24.34524, 60.0261], [24.35604, 60.03623], [24.35964, 60.04299], [24.35964, 60.05143], [24.35964, 60.06156], [24.36684, 60.07338], [24.32004, 60.07507], [24.29484, 60.07169], [24.27684, 60.05987], [24.29124, 60.05312], [24.26244, 60.0413], [24.25164, 60.03961], [24.23724, 60.03961], [24.20484, 60.04636], [24.17604, 60.04805], [24.15804, 60.04299], [24.15804, 60.03454], [24.18324, 60.0261], [24.16524, 60.01935], [24.14724, 60.02272], [24.13284, 60.02779], [24.11484, 60.03286], [24.10764, 60.03117], [24.06804, 60.02104], [24.05724, 60.02104], [24.04644, 60.0261], [24.02844, 60.00922], [24.01044, 60.0109], [24.00324, 60.02104], [24.01764, 60.03286], [24.01764, 60.03961], [23.99964, 60.03792], [23.98884, 60.03117], [23.98164, 60.02272], [23.97084, 60.01259], [23.95644, 60.00415], [23.94204, 59.99908], [23.87364, 59.99233], [23.79804, 59.95687], [23.77284, 59.96869], [23.60724, 59.95687], [23.59284, 59.96194], [23.58204, 59.97376], [23.57484, 59.97713], [23.56044, 59.97713], [23.49563, 59.96869], [23.45243, 59.95687], [23.43083, 59.95687], [23.44163, 59.97207], [23.48483, 60.0109], [23.49923, 60.01935], [23.52804, 60.02441], [23.54244, 60.02948], [23.54244, 60.03623], [23.53524, 60.04468], [23.53524, 60.05312], [23.53884, 60.06325], [23.54604, 60.07338], [23.51004, 60.06663], [23.49923, 60.06325], [23.49203, 60.05481], [23.48483, 60.04468], [23.47763, 60.03623], [23.46323, 60.03286], [23.45243, 60.02779], [23.44883, 60.01766], [23.44523, 60.00584], [23.43803, 59.99402], [23.43083, 59.98895], [23.40923, 59.98051], [23.39843, 59.97376], [23.36603, 59.94505], [23.32643, 59.9231], [23.23643, 59.89777], [23.22203, 59.88595], [23.22203, 59.86738], [23.23283, 59.85218], [23.25083, 59.8488], [23.25083, 59.84036], [23.08163, 59.82685], [23.06723, 59.8201], [23.00603, 59.82685], [22.98443, 59.82347], [22.96643, 59.81841], [22.90523, 59.81165], [22.88723, 59.81334], [22.90523, 59.8201], [22.93043, 59.84205], [22.94483, 59.8488], [22.98803, 59.85218], [23.12843, 59.88595], [23.16803, 59.88933], [23.16083, 59.90959], [23.16443, 59.91803], [23.17883, 59.91803], [23.18963, 59.91634], [23.22203, 59.91634], [23.24723, 59.9231], [23.26883, 59.93661], [23.29403, 59.95856], [23.30843, 59.97882], [23.32643, 60.00922], [23.33363, 60.02948], [23.31563, 60.02272], [23.25083, 59.94843], [23.22203, 59.92985], [23.20403, 59.92985], [23.20403, 59.93323], [23.20763, 59.93998], [23.21123, 59.94336], [23.20043, 59.94843], [23.18963, 59.95012], [23.17883, 59.94843], [23.16803, 59.94336], [23.17163, 59.93661], [23.13203, 59.94336], [23.12123, 59.93323], [23.11763, 59.9231], [23.11043, 59.9231], [23.10323, 59.92985], [23.09963, 59.93998], [23.11043, 59.97038], [23.11043, 59.97376], [23.12843, 59.98389], [23.20403, 59.9974], [23.21843, 60.00753], [23.24003, 60.03286], [23.25803, 60.03961], [23.20403, 60.04974], [23.10683, 60.03961], [23.06003, 60.03961], [23.03483, 60.04468], [23.01323, 60.05143], [22.99523, 60.06156], [22.99163, 60.07676], [22.99883, 60.09027], [23.01323, 60.10209], [23.04563, 60.12235], [23.02403, 60.13586], [23.02043, 60.12911], [23.00963, 60.11222], [23.00603, 60.10715], [22.99523, 60.10378], [22.97723, 60.09871], [22.97003, 60.09364], [22.97003, 60.11053], [22.95923, 60.12235], [22.94123, 60.12742], [22.90883, 60.13248], [22.88723, 60.1443], [22.87643, 60.14937], [22.88363, 60.1595], [22.88723, 60.16963], [22.88003, 60.17807], [22.86563, 60.18314], [22.92323, 60.23042], [22.94123, 60.24562], [23.00603, 60.2777], [23.02403, 60.2929], [23.03123, 60.30303], [23.03843, 60.31991], [23.04563, 60.32667], [23.07083, 60.33849], [23.08163, 60.34524], [23.08163, 60.35537], [23.06003, 60.35706], [23.03483, 60.34355], [23.00963, 60.32329], [22.99883, 60.30641], [22.94123, 60.31654], [22.87643, 60.30134], [22.73603, 60.23886], [22.61003, 60.22029], [22.55243, 60.20509], [22.52363, 60.20509], [22.53803, 60.21353], [22.59203, 60.23211], [22.57403, 60.23549], [22.57043, 60.24224], [22.59203, 60.2625], [22.60283, 60.26757], [22.64963, 60.27939], [22.59923, 60.27601], [22.57403, 60.27095], [22.52723, 60.25237], [22.50203, 60.24731], [22.44802, 60.24562], [22.45882, 60.25237], [22.45882, 60.25913], [22.45882, 60.26419], [22.46242, 60.27263], [22.46962, 60.2777], [22.48762, 60.28445], [22.50923, 60.30134], [22.54163, 60.31823], [22.54523, 60.33342], [22.59563, 60.36382], [22.62803, 60.37564], [22.63163, 60.38915], [22.62443, 60.39928], [22.58123, 60.37564], [22.54523, 60.37226], [22.46242, 60.37564], [22.48402, 60.40265], [22.32562, 60.38239], [22.29322, 60.38239], [22.27882, 60.38577], [22.25002, 60.40434], [22.18162, 60.42967], [22.16002, 60.43474], [22.11682, 60.43643], [22.10962, 60.44487], [22.10962, 60.45669], [22.10242, 60.46175], [22.08442, 60.44656], [22.06282, 60.43643], [22.04842, 60.43811], [22.01962, 60.45669], [22.01602, 60.46007], [22.01962, 60.46851], [22.01962, 60.47189], [22.01242, 60.47189], [22.00162, 60.4702], [21.99802, 60.47189], [21.99082, 60.47526], [21.98362, 60.47695], [21.98002, 60.48033], [21.98362, 60.49215], [21.93682, 60.49215], [21.94042, 60.4989], [21.94402, 60.51241], [21.95122, 60.51917], [21.93322, 60.52423], [21.90442, 60.5293], [21.87562, 60.5293], [21.85402, 60.52592], [21.84322, 60.51579], [21.84682, 60.50397], [21.87562, 60.47864], [21.82882, 60.48539], [21.80722, 60.48539], [21.78562, 60.47864], [21.78922, 60.49553], [21.80362, 60.52592], [21.80722, 60.54618], [21.80362, 60.56138], [21.80722, 60.57489], [21.81802, 60.58502], [21.84682, 60.5884], [21.83242, 60.59684], [21.82882, 60.60697], [21.83242, 60.6171], [21.83962, 60.62892], [21.77482, 60.6036], [21.75322, 60.59178], [21.73162, 60.58164], [21.67762, 60.57658], [21.66322, 60.56814], [21.65962, 60.55969], [21.67042, 60.5445], [21.66322, 60.53605], [21.65962, 60.53099], [21.65602, 60.52592], [21.65602, 60.51917], [21.65602, 60.50903], [21.64162, 60.49553], [21.61282, 60.48877], [21.58042, 60.48708], [21.55882, 60.49215], [21.58402, 60.50566], [21.56962, 60.52592], [21.51922, 60.56814], [21.53362, 60.56814], [21.58042, 60.55969], [21.58042, 60.56814], [21.55522, 60.57151], [21.48681, 60.57489], [21.45441, 60.56814], [21.44361, 60.56814], [21.43281, 60.56982], [21.41841, 60.57827], [21.40761, 60.57996], [21.40761, 60.5884], [21.41481, 60.5884], [21.41841, 60.59009], [21.42921, 60.59346], [21.41481, 60.60866], [21.44361, 60.60191], [21.46161, 60.60191], [21.46881, 60.60866], [21.42201, 60.62892], [21.40041, 60.63399], [21.37881, 60.6475], [21.36441, 60.6627], [21.35361, 60.6762], [21.35361, 60.68127], [21.35721, 60.68296], [21.35721, 60.68465], [21.35361, 60.68971], [21.42561, 60.67958], [21.44001, 60.67958], [21.44721, 60.69309], [21.44001, 60.70322], [21.43281, 60.71335], [21.42201, 60.72517], [21.46881, 60.72517], [21.46881, 60.73193], [21.44721, 60.73193], [21.42561, 60.73699], [21.40761, 60.74375], [21.38601, 60.75219], [21.40401, 60.75894], [21.41121, 60.75894], [21.42201, 60.75894], [21.40041, 60.77414], [21.38601, 60.77921], [21.37521, 60.77921], [21.38241, 60.79272], [21.37521, 60.80791], [21.36081, 60.81636], [21.34641, 60.81298], [21.33921, 60.81636], [21.33201, 60.82142], [21.32841, 60.82818], [21.32481, 60.83493], [21.33561, 60.84506], [21.31761, 60.86532], [21.33201, 60.8687], [21.38241, 60.86364], [21.40761, 60.86532], [21.42921, 60.87546], [21.41841, 60.88052], [21.40761, 60.88221], [21.38241, 60.88221], [21.37521, 60.8839], [21.35361, 60.90247], [21.36441, 60.90416], [21.38241, 60.91429], [21.38961, 60.91598], [21.40041, 60.91429], [21.40761, 60.90754], [21.41481, 60.90247], [21.42921, 60.90247], [21.42201, 60.9126], [21.41841, 60.92442], [21.41121, 60.93287], [21.40401, 60.93793], [21.39321, 60.93962], [21.38961, 60.943], [21.38601, 60.94975], [21.37881, 60.9582], [21.33561, 61.00379], [21.31761, 61.01223], [21.33201, 61.02405], [21.33921, 61.02743], [21.31041, 61.03756], [21.30321, 61.046], [21.29961, 61.05951], [21.32121, 61.05951], [21.36441, 61.04431], [21.38601, 61.04094], [21.40761, 61.04263], [21.40761, 61.04769], [21.40761, 61.05107], [21.38961, 61.05782], [21.36801, 61.05951], [21.39681, 61.06964], [21.45441, 61.05445], [21.48321, 61.05951], [21.46881, 61.06627], [21.45441, 61.07809], [21.45081, 61.09159], [21.46161, 61.10173], [21.45081, 61.12537], [21.44721, 61.1355], [21.43641, 61.14225], [21.44361, 61.14225], [21.46881, 61.14901], [21.46161, 61.14901], [21.45441, 61.15069], [21.45081, 61.15238], [21.44361, 61.15576], [21.45801, 61.16927], [21.44361, 61.16927], [21.45441, 61.17602], [21.47241, 61.17771], [21.50482, 61.17771], [21.49761, 61.18784], [21.49761, 61.19122], [21.52642, 61.19966], [21.55882, 61.20473], [21.54442, 61.22499], [21.52282, 61.23512], [21.47601, 61.24525], [21.48681, 61.25539], [21.49761, 61.26045], [21.50842, 61.26721], [21.50482, 61.27903], [21.54442, 61.27903], [21.54442, 61.28747], [21.54082, 61.29253], [21.54442, 61.31111], [21.54442, 61.32124], [21.54082, 61.32631], [21.53362, 61.32968], [21.53002, 61.33475], [21.53002, 61.33981], [21.53002, 61.34995], [21.53002, 61.35501], [21.52282, 61.37528], [21.51922, 61.38203], [21.50482, 61.38878], [21.49041, 61.39385], [21.46161, 61.39892], [21.44721, 61.40229], [21.47961, 61.41074], [21.54082, 61.40905], [21.57322, 61.4158], [21.55882, 61.431], [21.54082, 61.44282], [21.51202, 61.45802], [21.44361, 61.4749], [21.42201, 61.48503], [21.55522, 61.4749], [21.59122, 61.48503], [21.56962, 61.51374], [21.56602, 61.5188], [21.55162, 61.52218], [21.52282, 61.51712], [21.51202, 61.5188], [21.46881, 61.54751], [21.46161, 61.55764], [21.46161, 61.56271], [21.46521, 61.5644], [21.48321, 61.56777], [21.50842, 61.56946], [21.62362, 61.54582], [21.68842, 61.52387], [21.71722, 61.5188], [21.71722, 61.52725], [21.64882, 61.56102], [21.61282, 61.58466], [21.59122, 61.62856], [21.57322, 61.63532], [21.55162, 61.64038], [21.53722, 61.65051], [21.53722, 61.65727], [21.54442, 61.67246], [21.54082, 61.68091], [21.51922, 61.70455], [21.51922, 61.7113], [21.53722, 61.70792], [21.56962, 61.69442], [21.58762, 61.69779], [21.55882, 61.71299], [21.49041, 61.73663], [21.46881, 61.76027], [21.47241, 61.77209], [21.48321, 61.7856], [21.49041, 61.79911], [21.48681, 61.81093], [21.47241, 61.81768], [21.45441, 61.81937], [21.44361, 61.82613], [21.44721, 61.84132], [21.41841, 61.86327], [21.40401, 61.87678], [21.39321, 61.8886], [21.40401, 61.89367], [21.41121, 61.90042], [21.41481, 61.90718], [21.39321, 61.91393], [21.38961, 61.92069], [21.38601, 61.93082], [21.37881, 61.93757], [21.37161, 61.93926], [21.32481, 61.93757], [21.31761, 61.93926], [21.31401, 61.93926], [21.28881, 61.94939], [21.27801, 61.95108], [21.29601, 61.97134], [21.28161, 61.97979], [21.23481, 61.98485], [21.27801, 62.05071], [21.28521, 62.07435], [21.28881, 62.12163], [21.29601, 62.13007], [21.31401, 62.10981], [21.32841, 62.13851], [21.33201, 62.15202], [21.32481, 62.16384], [21.33921, 62.17566], [21.37161, 62.18579], [21.38241, 62.19424], [21.38961, 62.20774], [21.38241, 62.21788], [21.35361, 62.23138], [21.37521, 62.26684], [21.35361, 62.26684], [21.33921, 62.25502], [21.32841, 62.24152], [21.31401, 62.23138], [21.31761, 62.24827], [21.32841, 62.27698], [21.33201, 62.29386], [21.33201, 62.34114], [21.33921, 62.35634], [21.28521, 62.34452], [21.27081, 62.34958], [21.26361, 62.35972], [21.26001, 62.37154], [21.26361, 62.38504], [21.27801, 62.39686], [21.27081, 62.41037], [21.20601, 62.35972], [21.20241, 62.34958], [21.21681, 62.33439], [21.19521, 62.33776], [21.18801, 62.35296], [21.19521, 62.37322], [21.20241, 62.39011], [21.19521, 62.3918], [21.18801, 62.39518], [21.18081, 62.39686], [21.18801, 62.40868], [21.19521, 62.41375], [21.20241, 62.41713], [21.18441, 62.42388], [21.16641, 62.4205], [21.14841, 62.41375], [21.13401, 62.40362], [21.13041, 62.41713], [21.14841, 62.44752], [21.15561, 62.46441], [21.13761, 62.45765], [21.12321, 62.45428], [21.11601, 62.45934], [21.11241, 62.47792], [21.11601, 62.49649], [21.12321, 62.51], [21.13761, 62.52013], [21.15561, 62.52688], [21.14841, 62.53533], [21.12681, 62.5539], [21.14841, 62.56234], [21.16641, 62.57585], [21.18801, 62.5843], [21.20961, 62.58261], [21.19521, 62.60118], [21.12321, 62.60963], [21.10521, 62.62313], [21.09441, 62.61976], [21.08361, 62.613], [21.06561, 62.59612], [21.06921, 62.61976], [21.08361, 62.65859], [21.08001, 62.67886], [21.09801, 62.68055], [21.12681, 62.69068], [21.14841, 62.70419], [21.15921, 62.71938], [21.15921, 62.72951], [21.15561, 62.7312], [21.14841, 62.7312], [21.14121, 62.73289], [21.12321, 62.74302], [21.11601, 62.74978], [21.10881, 62.76666], [21.11241, 62.78186], [21.13041, 62.7903], [21.15201, 62.79368], [21.17001, 62.78524], [21.18441, 62.78186], [21.18801, 62.7903], [21.19161, 62.79368], [21.20961, 62.80719], [21.21681, 62.81563], [21.22041, 62.83083], [21.22401, 62.84603], [21.22761, 62.85785], [21.24201, 62.86967], [21.26721, 62.86967], [21.33561, 62.85616], [21.35721, 62.85953], [21.36441, 62.8646], [21.38241, 62.87473], [21.38961, 62.8798], [21.39681, 62.88655], [21.40041, 62.90006], [21.40761, 62.91357], [21.41841, 62.93552], [21.42201, 62.94227], [21.42921, 62.94396], [21.46161, 62.95072], [21.44721, 62.98618], [21.44361, 63.00475], [21.44361, 63.0267], [21.44001, 63.03515], [21.44001, 63.03852], [21.44361, 63.04021], [21.45801, 63.04697], [21.46881, 63.04866], [21.47601, 63.04359], [21.47961, 63.04359], [21.48321, 63.05879], [21.49401, 63.0723], [21.52282, 63.06385], [21.56602, 63.04021], [21.59482, 63.03515], [21.62722, 63.02333], [21.65602, 63.01826], [21.68842, 63.0267], [21.64522, 63.05541], [21.58042, 63.08412], [21.55882, 63.09594], [21.55162, 63.10776], [21.57322, 63.12295], [21.55882, 63.11958], [21.54442, 63.11789], [21.53362, 63.11958], [21.51922, 63.12633], [21.51562, 63.13815], [21.51922, 63.14828], [21.51562, 63.15504], [21.50482, 63.15672], [21.51202, 63.16854], [21.52282, 63.17192], [21.55162, 63.17192], [21.55162, 63.17868], [21.51202, 63.18543], [21.50122, 63.19218], [21.49761, 63.20907], [21.50482, 63.21751], [21.52282, 63.22596], [21.54442, 63.23102], [21.55882, 63.23271], [21.61642, 63.204], [21.64882, 63.19725], [21.66682, 63.2192], [21.68842, 63.21076], [21.71362, 63.20232], [21.74242, 63.19894], [21.76402, 63.20569], [21.74962, 63.21076], [21.71722, 63.21582], [21.70282, 63.2192], [21.70282, 63.22596], [21.74242, 63.23946], [21.75682, 63.24115], [21.80002, 63.23946], [21.82162, 63.24453], [21.86842, 63.25973], [21.89362, 63.25973], [21.88282, 63.24622], [21.88282, 63.23609], [21.89002, 63.19725], [21.89002, 63.18881], [21.87922, 63.17868], [21.90442, 63.1753], [21.98362, 63.14322], [21.97282, 63.16517], [21.95482, 63.18543], [21.98362, 63.1905], [21.99442, 63.19725], [22.00522, 63.20569], [22.00882, 63.21582], [22.01242, 63.22427], [22.01602, 63.23271], [22.02322, 63.23946], [22.04482, 63.24622], [22.05202, 63.24115], [22.06282, 63.23271], [22.07362, 63.22596], [22.08802, 63.22596], [22.11322, 63.23609], [22.12762, 63.23946], [22.13842, 63.23778], [22.16002, 63.23102], [22.17442, 63.23271], [22.18162, 63.23609], [22.18162, 63.23946], [22.18162, 63.24453], [22.18162, 63.24622], [22.18882, 63.24622], [22.19602, 63.24453], [22.20322, 63.24115], [22.20322, 63.23946], [22.24642, 63.26648], [22.26802, 63.28506], [22.27882, 63.30194], [22.28602, 63.30194], [22.30762, 63.27661], [22.32922, 63.28337], [22.35082, 63.30532], [22.37242, 63.32052], [22.36522, 63.32727], [22.35802, 63.33402], [22.34722, 63.34922], [22.33282, 63.35935], [22.30402, 63.37286], [22.25362, 63.40663], [22.25002, 63.4117], [22.23202, 63.4117], [22.21762, 63.41508], [22.20682, 63.42014], [22.19602, 63.43196], [22.19242, 63.45898], [22.21402, 63.4708], [22.24642, 63.46911], [22.27522, 63.4556], [22.30402, 63.43534], [22.33642, 63.43027], [22.36522, 63.42859], [22.40122, 63.41845], [22.31842, 63.46067], [22.27882, 63.48769], [22.27162, 63.51301], [22.28242, 63.52652], [22.29322, 63.5299], [22.31842, 63.52821], [22.33642, 63.52315], [22.33642, 63.51301], [22.33282, 63.50288], [22.33282, 63.49275], [22.35442, 63.48769], [22.37962, 63.486], [22.39762, 63.47755], [22.39402, 63.45223], [22.40842, 63.45729], [22.42282, 63.46742], [22.43722, 63.47249], [22.43722, 63.47924], [22.43002, 63.48937], [22.43002, 63.49782], [22.43722, 63.50626], [22.44442, 63.51808], [22.46242, 63.55523], [22.47322, 63.56198], [22.48402, 63.56705], [22.49482, 63.5738], [22.49842, 63.58562], [22.50203, 63.58731], [22.54523, 63.57549], [22.53803, 63.58731], [22.49842, 63.62277], [22.51283, 63.63628], [22.52363, 63.64135], [22.53083, 63.64472], [22.53083, 63.65148], [22.52723, 63.65317], [22.52363, 63.65823], [22.56683, 63.65317], [22.58483, 63.65654], [22.59203, 63.67512], [22.59203, 63.69369], [22.58843, 63.70382], [22.59563, 63.70382], [22.61363, 63.69876], [22.62803, 63.68694], [22.63883, 63.68356], [22.64243, 63.68863], [22.64603, 63.69876], [22.65323, 63.70382], [22.66403, 63.70551], [22.67483, 63.70213], [22.68923, 63.69369], [22.70363, 63.68356], [22.70723, 63.67174], [22.70363, 63.65823], [22.71443, 63.64979], [22.73243, 63.62784], [22.73963, 63.62277], [22.75403, 63.62446], [22.77203, 63.62784], [22.79003, 63.6329], [22.80083, 63.63966], [22.81163, 63.64303], [22.81883, 63.64472], [22.82963, 63.64641], [22.83323, 63.65485], [22.83323, 63.66161], [22.83323, 63.66667], [22.83683, 63.67174], [22.84043, 63.67681], [22.85483, 63.68694], [22.88723, 63.69538], [22.90163, 63.70551], [22.88363, 63.71227], [22.83323, 63.72577], [22.90163, 63.72577], [22.88363, 63.74266], [22.87643, 63.74604], [22.90163, 63.73928], [22.91603, 63.73928], [22.92683, 63.74266], [22.92683, 63.74941], [22.93043, 63.75617], [22.93043, 63.76461], [22.92683, 63.76799], [22.90883, 63.77305], [22.89803, 63.78319], [22.90163, 63.79501], [22.92323, 63.80176], [22.94123, 63.80007], [22.95563, 63.79332], [22.97363, 63.77137], [22.99163, 63.76123], [23.00243, 63.76292], [23.00243, 63.77305], [22.99163, 63.78825], [22.99523, 63.80007], [22.99523, 63.80683], [22.99163, 63.81527], [23.04923, 63.8406], [23.06363, 63.85242], [23.07443, 63.85748], [23.12123, 63.84904], [23.13203, 63.85242], [23.14283, 63.85917], [23.15363, 63.86424], [23.15003, 63.86424], [23.14283, 63.8693], [23.14283, 63.87606], [23.15363, 63.8845], [23.16803, 63.88619], [23.19683, 63.89126], [23.27603, 63.88957], [23.30483, 63.89463], [23.32643, 63.91152], [23.35163, 63.89801], [23.37323, 63.90139], [23.39483, 63.91152], [23.41643, 63.92503], [23.38403, 63.93854], [23.36963, 63.94698], [23.36963, 63.95542], [23.38043, 63.96893], [23.37683, 63.97906], [23.36963, 63.9875], [23.36603, 63.99764], [23.36963, 64.0027], [23.38043, 64.04829], [23.39483, 64.05674], [23.41643, 64.05674], [23.44883, 64.04829], [23.45603, 64.04492], [23.46683, 64.03816], [23.47763, 64.03478], [23.48843, 64.03647], [23.49563, 64.03985], [23.50644, 64.04154], [23.53884, 64.03141], [23.60364, 64.02803], [23.61804, 64.03816], [23.60724, 64.0618], [23.58204, 64.08544], [23.56764, 64.09726], [23.57484, 64.10739], [23.58564, 64.10908], [23.61444, 64.10402], [23.62164, 64.10739], [23.64324, 64.12428], [23.65764, 64.12934], [23.66124, 64.14285], [23.67924, 64.15467], [23.70444, 64.16649], [23.70804, 64.16818], [23.72244, 64.17831], [23.71524, 64.17831], [23.71884, 64.19351], [23.72604, 64.20871], [23.73684, 64.21546], [23.75844, 64.20871], [23.77284, 64.20871], [23.81964, 64.22053], [23.83404, 64.22728], [23.84124, 64.23572], [23.86284, 64.26781], [23.88084, 64.26612], [23.92404, 64.2543], [23.94204, 64.24755], [23.93484, 64.25768], [23.92764, 64.27119], [23.92404, 64.28469], [23.92764, 64.30158], [23.94204, 64.31678], [23.97084, 64.33535], [23.98524, 64.35055], [23.99604, 64.37925], [24.00324, 64.38939], [24.02484, 64.39783], [24.06804, 64.40627], [24.08604, 64.41471], [24.07884, 64.4316], [24.09324, 64.42991], [24.10404, 64.4316], [24.11484, 64.43498], [24.12564, 64.44173], [24.12924, 64.44004], [24.16884, 64.45186], [24.20484, 64.45186], [24.21204, 64.45524], [24.21204, 64.47381], [24.21204, 64.48057], [24.21924, 64.48732], [24.23004, 64.48901], [24.25884, 64.48563], [24.26964, 64.4907], [24.27684, 64.49745], [24.28044, 64.51096], [24.28764, 64.51434], [24.30564, 64.52278], [24.32724, 64.52447], [24.34524, 64.53123], [24.35964, 64.54811], [24.35964, 64.55487], [24.35604, 64.565], [24.35604, 64.57175], [24.37404, 64.58019], [24.37404, 64.58864], [24.37044, 64.59539], [24.36684, 64.59708], [24.37404, 64.61734], [24.38124, 64.62916], [24.41004, 64.65111], [24.41364, 64.65956], [24.41724, 64.668], [24.42444, 64.67644], [24.42804, 64.67813], [24.44244, 64.68151], [24.47124, 64.70008], [24.51085, 64.71022], [24.52885, 64.71866], [24.54685, 64.73386], [24.53605, 64.74399], [24.53245, 64.74736], [24.53245, 64.75412], [24.54325, 64.76425], [24.55765, 64.771], [24.58645, 64.78114], [24.55045, 64.79633], [24.53965, 64.80478], [24.55765, 64.80984], [24.57925, 64.80815], [24.65845, 64.78789], [24.66925, 64.78958], [24.67645, 64.79464], [24.67645, 64.79971], [24.66565, 64.80646], [24.66205, 64.81322], [24.66925, 64.8301], [24.69085, 64.83517], [24.73045, 64.83517], [24.73765, 64.85543], [24.77365, 64.86556], [24.89605, 64.87232], [25.07245, 64.91622], [25.09405, 64.91791], [25.11205, 64.91453], [25.12285, 64.9044], [25.13005, 64.89427], [25.14445, 64.88414], [25.15165, 64.88414], [25.15885, 64.88752], [25.16605, 64.8892], [25.17685, 64.88414], [25.18045, 64.88076], [25.18405, 64.86556], [25.18765, 64.8605], [25.20205, 64.84868], [25.21645, 64.84192], [25.23445, 64.83686], [25.25965, 64.83517], [25.25965, 64.8301], [25.24885, 64.8301], [25.24165, 64.82842], [25.22365, 64.82335], [25.25965, 64.8166], [25.35325, 64.8301], [25.36045, 64.83348], [25.34965, 64.85206], [25.35325, 64.8605], [25.36765, 64.89258], [25.36765, 64.89934], [25.36045, 64.91116], [25.34605, 64.91116], [25.33525, 64.90609], [25.32085, 64.9044], [25.30645, 64.90947], [25.28125, 64.92298], [25.24165, 64.92973], [25.22365, 64.93817], [25.19125, 64.96688], [25.19485, 64.97026], [25.20565, 64.97701], [25.21285, 64.98039], [25.20565, 64.98714], [25.22005, 64.99052], [25.32085, 64.98376], [25.33885, 64.97701], [25.37485, 64.96012], [25.40005, 64.95168], [25.42165, 64.9483], [25.43965, 64.95337], [25.44325, 64.96688], [25.43605, 64.98039], [25.42525, 64.98883], [25.41805, 64.99896], [25.42165, 65.01416], [25.41445, 65.01922], [25.41445, 65.02429], [25.41445, 65.02936], [25.41805, 65.03442], [25.39285, 65.04793], [25.38205, 65.05637], [25.37485, 65.0665], [25.37485, 65.07664], [25.37125, 65.08508], [25.36405, 65.09015], [25.35685, 65.0969], [25.32445, 65.11041], [25.21285, 65.12392], [25.22005, 65.14587], [25.22725, 65.156], [25.25965, 65.17289], [25.27405, 65.17964], [25.28125, 65.19146], [25.28485, 65.20497], [25.28125, 65.22017], [25.29205, 65.21848], [25.30285, 65.22017], [25.31725, 65.22185], [25.32805, 65.22692], [25.32085, 65.22861], [25.30645, 65.23199], [25.29925, 65.23367], [25.31005, 65.24887], [25.31365, 65.25394], [25.29565, 65.259], [25.28845, 65.26069], [25.28125, 65.26069], [25.29565, 65.27082], [25.30645, 65.30291], [25.32085, 65.31641], [25.31725, 65.31979], [25.31005, 65.32655], [25.30645, 65.32992], [25.31725, 65.33161], [25.32085, 65.3333], [25.33525, 65.34343], [25.26685, 65.3772], [25.28125, 65.38058], [25.30645, 65.38227], [25.32085, 65.38565], [25.33165, 65.39071], [25.34605, 65.40591], [25.35685, 65.41097], [25.34605, 65.42786], [25.35685, 65.46501], [25.35325, 65.48358], [25.32445, 65.50722], [25.29205, 65.5258], [25.22005, 65.55788], [25.19845, 65.56295], [25.16965, 65.56295], [25.14805, 65.55957], [25.12645, 65.56126], [25.10125, 65.57646], [25.09765, 65.5849], [25.09405, 65.59165], [25.09045, 65.59503], [25.08685, 65.60516], [25.07245, 65.6136], [25.06165, 65.61698], [25.03645, 65.6136], [25.02205, 65.62036], [25.00405, 65.62711], [24.95725, 65.62205], [24.93565, 65.62374], [24.92485, 65.63049], [24.90685, 65.64569], [24.89605, 65.65075], [24.86005, 65.6592], [24.82045, 65.66257], [24.78085, 65.6592], [24.74485, 65.65075], [24.71965, 65.63724], [24.70525, 65.63387], [24.68725, 65.63218], [24.67645, 65.63556], [24.67285, 65.64569], [24.66925, 65.68284], [24.66925, 65.69128], [24.65845, 65.69466], [24.59725, 65.70985], [24.58285, 65.71661], [24.56845, 65.73012], [24.55405, 65.74531], [24.55045, 65.76389], [24.56125, 65.78922], [24.57565, 65.80779], [24.63325, 65.86014], [24.64405, 65.87871], [24.65485, 65.88546], [24.66925, 65.89222], [24.69805, 65.89391], [24.70885, 65.89897], [24.70885, 65.91248], [24.69445, 65.90404], [24.64405, 65.89222], [24.63325, 65.89053], [24.62605, 65.89053], [24.61885, 65.88884], [24.61525, 65.88209], [24.61525, 65.87027], [24.61525, 65.86689], [24.61165, 65.86351], [24.58645, 65.85507], [24.54325, 65.80948], [24.51805, 65.79597], [24.49284, 65.79597], [24.47484, 65.79766], [24.45324, 65.79766], [24.43164, 65.78922], [24.42804, 65.78584], [24.42444, 65.78246], [24.42444, 65.7774], [24.41724, 65.77233], [24.40644, 65.76895], [24.35604, 65.77908], [24.32724, 65.79766], [24.31644, 65.80272], [24.27684, 65.80948], [24.23724, 65.82299], [24.24804, 65.80948], [24.25164, 65.79428], [24.24444, 65.78077], [24.22284, 65.77571], [24.20484, 65.77908], [24.18684, 65.7909], [24.17244, 65.80441], [24.16164, 65.81623], [24.16164, 65.82299], [24.16164, 65.84156], [24.12564, 65.86858], [24.10404, 65.90911], [24.07524, 65.92768], [24.05364, 65.94794], [24.05724, 65.96989], [24.05364, 65.98509], [24.02844, 66.03575], [24.02124, 66.04926], [24.01044, 66.05601], [23.98524, 66.06614], [23.97444, 66.0729], [23.96724, 66.08134], [23.91324, 66.14888], [23.88804, 66.1607], [23.78724, 66.1759], [23.75124, 66.18941], [23.72244, 66.20629], [23.69004, 66.25695], [23.67924, 66.28228], [23.66484, 66.30592], [23.66124, 66.31605], [23.66484, 66.32618], [23.67204, 66.33969], [23.67564, 66.34982], [23.67564, 66.36333], [23.67204, 66.38191], [23.66844, 66.39542], [23.66484, 66.40555], [23.64684, 66.42412], [23.64324, 66.43594], [23.65404, 66.45958], [23.67564, 66.47478], [23.70444, 66.48322], [23.72964, 66.4866], [23.72964, 66.50348], [23.75484, 66.51193], [23.78724, 66.51868], [23.80524, 66.52881], [23.80884, 66.53894], [23.86284, 66.55414], [23.88084, 66.56427], [23.89164, 66.57947], [23.89164, 66.59636], [23.88804, 66.61324], [23.88084, 66.63182], [23.89164, 66.6487], [23.89884, 66.66559], [23.90244, 66.68585], [23.90244, 66.70611], [23.89164, 66.74326], [23.89164, 66.75171], [23.92404, 66.77366], [23.93844, 66.79054], [23.96004, 66.79392], [23.98524, 66.79223], [23.99964, 66.79561], [24.00324, 66.80574], [23.99964, 66.81249], [23.96004, 66.86146], [23.93484, 66.88848], [23.91324, 66.90368], [23.87364, 66.92394], [23.81604, 66.97629], [23.79084, 66.98811], [23.76204, 66.99486], [23.74404, 67.00161], [23.71884, 67.01681], [23.68284, 67.04889], [23.67564, 67.05903], [23.67204, 67.06578], [23.67204, 67.07422], [23.66844, 67.08773], [23.66484, 67.09786], [23.65764, 67.10462], [23.64684, 67.10799], [23.62164, 67.12995], [23.60004, 67.14008], [23.58204, 67.15359], [23.57484, 67.17385], [23.58564, 67.1806], [23.59644, 67.19074], [23.60724, 67.20087], [23.61444, 67.21438], [23.59644, 67.21775], [23.59284, 67.22451], [23.59284, 67.24477], [23.60364, 67.25997], [23.62164, 67.26841], [23.73684, 67.29036], [23.76204, 67.30725], [23.78724, 67.33764], [23.75124, 67.34608], [23.75124, 67.36972], [23.76204, 67.39674], [23.76564, 67.42038], [23.75124, 67.42714], [23.72964, 67.4322], [23.66124, 67.43558], [23.59284, 67.45415], [23.55324, 67.45246], [23.51364, 67.44402], [23.47763, 67.44402], [23.44523, 67.46091], [23.43083, 67.48624], [23.44523, 67.50481], [23.46683, 67.5217], [23.48483, 67.54365], [23.47403, 67.55547], [23.49923, 67.5656], [23.53524, 67.57742], [23.55324, 67.58755], [23.54964, 67.61119], [23.54244, 67.62639], [23.51724, 67.65341], [23.51004, 67.6686], [23.49923, 67.70913], [23.48843, 67.72433], [23.48483, 67.73783], [23.48483, 67.79693], [23.48123, 67.8172], [23.47763, 67.84084], [23.48123, 67.86448], [23.49923, 67.88136], [23.53164, 67.89318], [23.60364, 67.90331], [23.63604, 67.91345], [23.66124, 67.93202], [23.66124, 67.95059], [23.64324, 67.96242], [23.57484, 67.97255], [23.48483, 68.01645], [23.45603, 68.02489], [23.38403, 68.05191], [23.37323, 68.06035], [23.36963, 68.0688], [23.33003, 68.1279], [23.31923, 68.13803], [23.30483, 68.14478], [23.27243, 68.14478], [23.18603, 68.12283], [23.16443, 68.12283], [23.15723, 68.1279], [23.15363, 68.1279], [23.15003, 68.12958], [23.15003, 68.13972], [23.15003, 68.14478], [23.15363, 68.15322], [23.16083, 68.17855], [23.15723, 68.187], [23.15003, 68.19375], [23.15363, 68.21739], [23.13923, 68.23428], [23.09603, 68.25623], [23.08163, 68.26467], [23.07803, 68.27311], [23.07443, 68.28156], [23.06723, 68.29], [23.05283, 68.29844], [22.90523, 68.33728], [22.87643, 68.35079], [22.83323, 68.38456], [22.80803, 68.39469], [22.74683, 68.38625], [22.71803, 68.39807], [22.68923, 68.41664], [22.66043, 68.42677], [22.64243, 68.42677], [22.62443, 68.42509], [22.60643, 68.42509], [22.56683, 68.43691], [22.52003, 68.43859], [22.45522, 68.4521], [22.37962, 68.45379], [22.37242, 68.45717], [22.37602, 68.46561], [22.37242, 68.46899], [22.30402, 68.47574], [22.07362, 68.47743], [22.03762, 68.48756], [22.03762, 68.49263], [22.03762, 68.49938], [22.03762, 68.50614], [22.03042, 68.50951], [22.02322, 68.5112], [22.01242, 68.51627], [21.99802, 68.5264], [21.96922, 68.5416], [21.96562, 68.54666], [21.91882, 68.56861], [21.73882, 68.58719], [21.71722, 68.61927], [21.66322, 68.63278], [21.57322, 68.66655], [21.49401, 68.67499], [21.46521, 68.68681], [21.45081, 68.69695], [21.42201, 68.72734], [21.41481, 68.73916], [21.40761, 68.74929], [21.38601, 68.75436], [21.31401, 68.75436], [21.30681, 68.75605], [21.29961, 68.75942], [21.29241, 68.76787], [21.28881, 68.76955], [21.27441, 68.77631], [21.21681, 68.81684], [21.15201, 68.84216], [21.07281, 68.86918], [20.90721, 68.89451], [20.88561, 68.90633], [20.88921, 68.92659], [20.91801, 68.93335], [20.93601, 68.94854], [20.93601, 68.96712], [20.91081, 68.98063], [20.86401, 68.98569], [20.79561, 69.01102], [20.67681, 69.01778], [20.62281, 69.03635], [20.71641, 69.09883], [20.74521, 69.10389], [21.03321, 69.04142], [21.07281, 69.03635], [21.09801, 69.0431], [21.15561, 69.08701], [21.03321, 69.18157], [21.06201, 69.21534], [21.08001, 69.23054], [21.09801, 69.23898], [21.31401, 69.29133], [21.63802, 69.27106], [21.66322, 69.26262], [21.94762, 69.06506], [22.02322, 69.01271], [22.16002, 68.9553], [22.17442, 68.94348], [22.18882, 68.91815], [22.19962, 68.90802], [22.27882, 68.85736], [22.35802, 68.83203], [22.37242, 68.8219], [22.39762, 68.73241], [22.40842, 68.71214], [22.43002, 68.71045], [22.54163, 68.72565], [22.57043, 68.72734], [22.59563, 68.72396], [22.85123, 68.67499], [23.02043, 68.68681], [23.07083, 68.68006], [23.09963, 68.66993], [23.17523, 68.62096], [23.19683, 68.61758], [23.48123, 68.68513], [23.64324, 68.69526], [23.73324, 68.71552], [23.76924, 68.75605], [23.78724, 68.79995], [23.85204, 68.81684], [23.92764, 68.81684], [24.13284, 68.77631], [24.16524, 68.75436], [24.18684, 68.74423], [24.33084, 68.70877], [24.48204, 68.6885], [24.66205, 68.66655], [24.75565, 68.63785], [24.83125, 68.59394], [24.86005, 68.56355], [24.87805, 68.55511], [24.90685, 68.55679], [24.92845, 68.5703], [24.93925, 68.58888], [24.95005, 68.60576], [24.98245, 68.61589], [25.00765, 68.61421], [25.07245, 68.63109], [25.09765, 68.63447], [25.11925, 68.63785], [25.13365, 68.64798], [25.14445, 68.66824], [25.13365, 68.67668], [25.13365, 68.68344], [25.13725, 68.6885], [25.14445, 68.69526], [25.14445, 68.74254], [25.14805, 68.76449], [25.16245, 68.78475], [25.20205, 68.81346], [25.38565, 68.87425], [25.43245, 68.88438], [25.48285, 68.88776], [25.60166, 68.87256], [25.62686, 68.87425], [25.65206, 68.88269], [25.66646, 68.89789], [25.67726, 68.91308], [25.69526, 68.9249], [25.72766, 68.94179], [25.73846, 68.95192], [25.74206, 68.96543], [25.75286, 68.97894], [25.79606, 68.99414], [25.80326, 69.00596], [25.79966, 69.01271], [25.79246, 69.01778], [25.77446, 69.02622], [25.76726, 69.03128], [25.76366, 69.03466], [25.76726, 69.03973], [25.76366, 69.0431], [25.74926, 69.05999], [25.74926, 69.06506], [25.75646, 69.07519], [25.76006, 69.08194], [25.76006, 69.11571], [25.76366, 69.11909], [25.76726, 69.12247], [25.77086, 69.12753], [25.77086, 69.13429], [25.76726, 69.14273], [25.75646, 69.15962], [25.74926, 69.16468], [25.73486, 69.1917], [25.73846, 69.21872], [25.77446, 69.29808], [25.78526, 69.31328], [25.87886, 69.37069], [25.87166, 69.37913], [25.84286, 69.41797], [25.86446, 69.44161], [25.87886, 69.44667], [25.88606, 69.45512], [25.88606, 69.47876], [25.89326, 69.49058], [25.90766, 69.5024], [25.90046, 69.50915], [25.88966, 69.51422], [25.88606, 69.52097], [25.90046, 69.53279], [25.96166, 69.54799], [25.98686, 69.56487], [26.00486, 69.58683], [26.00486, 69.61047], [25.97966, 69.63411], [25.96526, 69.64255], [25.96166, 69.65268], [25.96886, 69.66281], [25.97966, 69.67463], [26.00486, 69.68983], [26.03366, 69.69658], [26.18126, 69.71178], [26.19926, 69.71516], [26.21006, 69.7236], [26.22446, 69.73204], [26.26766, 69.75906], [26.31806, 69.79452], [26.41886, 69.83505], [26.44766, 69.85531], [26.43686, 69.87388], [26.44766, 69.88233], [26.48006, 69.89921], [26.50167, 69.91779], [26.53407, 69.92454], [26.70687, 69.93467], [26.77167, 69.92792], [26.86527, 69.93805], [26.89407, 69.93467], [26.95167, 69.91948], [26.98047, 69.92285], [27.00927, 69.92285], [27.08127, 69.90259], [27.09927, 69.90259], [27.31167, 69.92961], [27.35127, 69.94818], [27.34407, 69.95156], [27.32967, 69.95662], [27.32247, 69.96], [27.33327, 69.96844], [27.34767, 69.97182], [27.36567, 69.97182], [27.38007, 69.97351], [27.44487, 70.0039], [27.56368, 70.02417], [27.57088, 70.04105], [27.61408, 70.06132], [27.66448, 70.06807], [27.79048, 70.05963], [27.86608, 70.07483], [27.89848, 70.07145], [27.92728, 70.05287], [27.98128, 70.00897], [28.16848, 69.89415], [28.19008, 69.8857], [28.38088, 69.857], [28.38088, 69.82154], [28.40608, 69.80296], [28.44208, 69.79114], [28.48168, 69.78608], [28.80569, 69.73036], [29.12969, 69.67463], [29.14769, 69.6645], [29.20169, 69.58683], [29.34569, 69.46356], [29.23049, 69.37744], [28.86329, 69.21703], [28.85249, 69.20352], [28.84529, 69.18157], [28.82729, 69.10727], [28.82729, 69.09038], [28.83809, 69.08025], [28.95329, 69.02791], [28.83449, 68.984], [28.71209, 68.96881], [28.45648, 68.89958], [28.40968, 68.89789], [28.41328, 68.87931], [28.42768, 68.87087], [28.44568, 68.8658], [28.64729, 68.87087], [28.72649, 68.8658], [28.80209, 68.83541], [28.74809, 68.75942], [28.71569, 68.72734]]], [[[24.81685, 64.96857], [24.80605, 64.96688], [24.79165, 64.96688], [24.78085, 64.96688], [24.77005, 64.9635], [24.76285, 64.95675], [24.75205, 64.95337], [24.73405, 64.95168], [24.71245, 64.95168], [24.70165, 64.95844], [24.70885, 64.97363], [24.70525, 64.97701], [24.69805, 64.98714], [24.68365, 64.99727], [24.65845, 64.97194], [24.63325, 64.96857], [24.59725, 64.99221], [24.57925, 65.00909], [24.56845, 65.0226], [24.56125, 65.0378], [24.58645, 65.04962], [24.65485, 65.08001], [24.74125, 65.08339], [24.83485, 65.09521], [24.88165, 65.08677], [24.89605, 65.07326], [24.87445, 65.0665], [24.88165, 65.05975], [24.90685, 65.05975], [24.93565, 65.05975], [24.99325, 65.05468], [25.03285, 65.05806], [25.06165, 65.04286], [25.02925, 65.03442], [24.96085, 65.03442], [24.87805, 65.04455], [24.82045, 65.04286], [24.80245, 65.02429], [24.72325, 65.00403], [24.75205, 64.97532], [24.81325, 64.9787], [24.82765, 64.97363], [24.81685, 64.96857]]]]}}]}