{"type": "FeatureCollection", "properties": {"source": "Natural Earth 1:10m Admin-0 countries v4.1.0 via world-atlas@2 (countries-10m.json), public domain", "crs": "EPSG:4326 (lon, lat degrees)"}, "features": [{"type": "Feature", "properties": {"part": "main_island", "name_zh": "臺灣本島", "name_en": "Taiwan (main island)", "iso_n3": "158", "area_km2": 35855}, "geometry": {"type": "Polygon", "coordinates": [[[121.81622, 24.83109], [121.80902, 24.80576], [121.80542, 24.77874], [121.80902, 24.75341], [121.81982, 24.69938], [121.81982, 24.68587], [121.81262, 24.67236], [121.81622, 24.64365], [121.82702, 24.62339], [121.85222, 24.60819], [121.88102, 24.60482], [121.88102, 24.59806], [121.87022, 24.59975], [121.85942, 24.59806], [121.84862, 24.59468], [121.84142, 24.58962], [121.85222, 24.57273], [121.85582, 24.55078], [121.85222, 24.53052], [121.83062, 24.5187], [121.82702, 24.51026], [121.83062, 24.50012], [121.83782, 24.49168], [121.84142, 24.48155], [121.83062, 24.47311], [121.80542, 24.46129], [121.78022, 24.43258], [121.78022, 24.42245], [121.78022, 24.39712], [121.77662, 24.38868], [121.77302, 24.38024], [121.76942, 24.3701], [121.76582, 24.34815], [121.76582, 24.3414], [121.76222, 24.33633], [121.75862, 24.33296], [121.76222, 24.3262], [121.76582, 24.32282], [121.76942, 24.31776], [121.77302, 24.31269], [121.77302, 24.30932], [121.76582, 24.30087], [121.74422, 24.28061], [121.72262, 24.2519], [121.70462, 24.2384], [121.69742, 24.23164], [121.70102, 24.22489], [121.69742, 24.21982], [121.67222, 24.20125], [121.66142, 24.1928], [121.65062, 24.17254], [121.63982, 24.13033], [121.61462, 24.09149], [121.60742, 24.07629], [121.60742, 24.06109], [121.61462, 24.04252], [121.62182, 24.03408], [121.62542, 24.0307], [121.62902, 24.02563], [121.62902, 24.0155], [121.62542, 24.00199], [121.61102, 23.98173], [121.60742, 23.96991], [121.60742, 23.94796], [121.59302, 23.89224], [121.57142, 23.83145], [121.53902, 23.69298], [121.52102, 23.65921], [121.47781, 23.43463], [121.46341, 23.34345], [121.45261, 23.32656], [121.42741, 23.29279], [121.41661, 23.27591], [121.40941, 23.25395], [121.40221, 23.21512], [121.40221, 23.17966], [121.39861, 23.14589], [121.38061, 23.11043], [121.37341, 23.10367], [121.35541, 23.09185], [121.34821, 23.08341], [121.34461, 23.07497], [121.33741, 23.0547], [121.31941, 23.026], [121.30861, 22.98041], [121.29781, 22.95845], [121.26181, 22.9078], [121.25461, 22.89766], [121.20421, 22.85714], [121.18981, 22.84363], [121.18981, 22.8335], [121.18981, 22.81155], [121.18981, 22.80142], [121.18621, 22.79128], [121.17901, 22.77946], [121.16101, 22.75751], [121.14301, 22.74232], [121.08181, 22.70348], [121.03861, 22.66295], [121.02781, 22.65789], [121.02061, 22.64776], [121.00261, 22.60048], [120.99181, 22.58359], [120.95941, 22.54813], [120.94861, 22.52618], [120.94141, 22.48396], [120.92341, 22.42486], [120.88741, 22.36576], [120.88021, 22.3455], [120.87661, 22.28978], [120.87661, 22.23743], [120.88021, 22.05506], [120.87301, 22.02974], [120.86221, 22.00947], [120.85141, 22.00103], [120.83701, 21.98752], [120.83701, 21.95713], [120.84061, 21.92504], [120.84061, 21.90478], [120.82261, 21.92842], [120.79741, 21.947], [120.76861, 21.95882], [120.73621, 21.96557], [120.73621, 21.94362], [120.72901, 21.93518], [120.71461, 21.93686], [120.70021, 21.94868], [120.70021, 21.95713], [120.70381, 21.98077], [120.68221, 22.01454], [120.68221, 22.02298], [120.68221, 22.02974], [120.68221, 22.04156], [120.68221, 22.0787], [120.68581, 22.09052], [120.69661, 22.10234], [120.69661, 22.11248], [120.62101, 22.29484], [120.61381, 22.30497], [120.59221, 22.32861], [120.57781, 22.36407], [120.57061, 22.37421], [120.53821, 22.39616], [120.52741, 22.40291], [120.52381, 22.4046], [120.51661, 22.40629], [120.51301, 22.4198], [120.51301, 22.42486], [120.495, 22.43499], [120.459, 22.45188], [120.441, 22.46201], [120.423, 22.47721], [120.4122, 22.48227], [120.4014, 22.48734], [120.3978, 22.48565], [120.3906, 22.48396], [120.3798, 22.48396], [120.333, 22.51942], [120.2862, 22.58021], [120.333, 22.52618], [120.3294, 22.55151], [120.3186, 22.56502], [120.315, 22.57684], [120.2934, 22.59879], [120.2574, 22.62749], [120.2466, 22.64269], [120.2394, 22.65958], [120.2466, 22.67477], [120.2538, 22.68997], [120.2466, 22.71023], [120.2358, 22.7305], [120.2178, 22.75751], [120.1998, 22.79297], [120.1962, 22.80817], [120.1962, 22.8183], [120.2034, 22.83181], [120.2034, 22.84025], [120.1998, 22.84363], [120.1962, 22.84701], [120.1926, 22.85207], [120.189, 22.86052], [120.1782, 22.8774], [120.1746, 22.88416], [120.1674, 22.93144], [120.1638, 22.95339], [120.1566, 22.9669], [120.1422, 22.98041], [120.1602, 22.99223], [120.171, 23.01418], [120.1674, 23.03106], [120.1422, 23.03444], [120.1386, 23.02769], [120.135, 23.01587], [120.1278, 23.00742], [120.1134, 23.00742], [120.1098, 23.01587], [120.1098, 23.03951], [120.1062, 23.04795], [120.0918, 23.0547], [120.0846, 23.04795], [120.0774, 23.03782], [120.0666, 23.03444], [120.0558, 23.04288], [120.0522, 23.05639], [120.0558, 23.06821], [120.0594, 23.07665], [120.0702, 23.08172], [120.0846, 23.08341], [120.0954, 23.08679], [120.099, 23.09692], [120.0954, 23.10198], [120.0594, 23.11043], [120.0594, 23.11718], [120.0882, 23.11718], [120.0846, 23.12731], [120.0702, 23.13913], [120.0594, 23.15095], [120.063, 23.16446], [120.0702, 23.16953], [120.081, 23.1729], [120.0882, 23.18135], [120.0846, 23.19654], [120.0774, 23.20667], [120.081, 23.21681], [120.0882, 23.23031], [120.0954, 23.23876], [120.0954, 23.2472], [120.0954, 23.25564], [120.1098, 23.28604], [120.1134, 23.29279], [120.1242, 23.29448], [120.1098, 23.30292], [120.117, 23.31812], [120.1314, 23.31812], [120.1422, 23.32319], [120.1494, 23.3215], [120.1458, 23.33332], [120.1386, 23.32825], [120.1314, 23.32994], [120.1206, 23.32994], [120.1206, 23.34176], [120.1314, 23.36034], [120.1458, 23.36202], [120.1638, 23.36202], [120.1494, 23.39748], [120.135, 23.42619], [120.1422, 23.4397], [120.1422, 23.44645], [120.1314, 23.45152], [120.1314, 23.45658], [120.1386, 23.46503], [120.1422, 23.47347], [120.1566, 23.49204], [120.1242, 23.49036], [120.1242, 23.52075], [120.1422, 23.53764], [120.1422, 23.59505], [120.1422, 23.63726], [120.153, 23.67272], [120.171, 23.69974], [120.1746, 23.73351], [120.1854, 23.7639], [120.189, 23.77404], [120.2142, 23.80274], [120.2178, 23.81287], [120.2178, 23.81794], [120.2394, 23.83314], [120.2466, 23.84327], [120.2538, 23.8686], [120.2574, 23.87873], [120.2862, 23.90237], [120.2934, 23.9125], [120.3042, 23.93952], [120.3186, 23.96653], [120.3402, 24.02226], [120.351, 24.03745], [120.3618, 24.04927], [120.3726, 24.05434], [120.3798, 24.05772], [120.387, 24.06278], [120.387, 24.07291], [120.3906, 24.08305], [120.4122, 24.09655], [120.4158, 24.10669], [120.4194, 24.14215], [120.423, 24.15228], [120.4338, 24.16072], [120.477, 24.20631], [120.477, 24.20969], [120.4806, 24.22151], [120.4914, 24.22995], [120.50221, 24.25359], [120.51301, 24.29581], [120.54901, 24.35153], [120.55981, 24.3853], [120.57061, 24.40556], [120.62101, 24.45622], [120.64981, 24.48324], [120.65701, 24.49844], [120.66061, 24.52039], [120.66781, 24.54065], [120.68941, 24.57611], [120.69661, 24.59806], [120.70381, 24.60651], [120.72901, 24.61326], [120.73621, 24.6217], [120.73981, 24.63015], [120.74341, 24.63859], [120.76141, 24.65379], [120.77941, 24.66561], [120.80101, 24.67067], [120.82621, 24.66561], [120.82261, 24.68587], [120.83341, 24.69769], [120.84781, 24.7112], [120.85501, 24.73146], [120.85861, 24.73653], [120.87301, 24.74328], [120.87661, 24.76185], [120.89821, 24.80069], [120.90541, 24.81082], [120.90901, 24.81758], [120.90901, 24.82264], [120.90541, 24.8294], [120.90181, 24.83615], [120.90901, 24.84628], [120.91621, 24.85304], [120.91981, 24.86148], [120.92341, 24.87499], [120.92701, 24.88512], [120.93421, 24.89525], [120.94501, 24.90201], [120.95221, 24.90538], [120.95221, 24.90876], [120.95581, 24.91889], [120.96301, 24.94084], [120.97021, 24.95097], [121.00621, 24.99994], [121.03141, 25.02865], [121.06021, 25.0506], [121.12861, 25.07086], [121.14661, 25.081], [121.16101, 25.09113], [121.17541, 25.09957], [121.21141, 25.11139], [121.28701, 25.12321], [121.33021, 25.12996], [121.34821, 25.13672], [121.37341, 25.15529], [121.37701, 25.15867], [121.38781, 25.15867], [121.39861, 25.15867], [121.41301, 25.15529], [121.42021, 25.14685], [121.42381, 25.13672], [121.43101, 25.13165], [121.44181, 25.13672], [121.43101, 25.15529], [121.40581, 25.17556], [121.39501, 25.18231], [121.39861, 25.19244], [121.40581, 25.19751], [121.41301, 25.20088], [121.41661, 25.20426], [121.42381, 25.22115], [121.43461, 25.24141], [121.45981, 25.26167], [121.49941, 25.27856], [121.53902, 25.287], [121.58222, 25.28362], [121.59662, 25.2718], [121.63622, 25.22284], [121.65062, 25.19751], [121.65422, 25.1992], [121.66502, 25.20088], [121.67582, 25.20257], [121.68302, 25.20088], [121.68302, 25.19751], [121.67942, 25.19244], [121.67582, 25.18738], [121.67582, 25.17893], [121.67942, 25.17556], [121.69382, 25.16542], [121.69742, 25.16205], [121.70462, 25.15698], [121.71902, 25.15192], [121.89182, 25.11308], [121.90622, 25.10632], [121.89902, 25.0945], [121.89902, 25.08437], [121.89902, 25.0658], [121.90982, 25.0354], [121.92062, 25.0219], [121.92782, 25.01852], [121.95302, 25.0219], [121.96742, 25.0219], [121.98182, 25.01683], [121.99622, 25.01007], [122.00702, 25.00163], [121.92782, 24.96617], [121.90622, 24.94929], [121.83422, 24.87161], [121.82342, 24.85473], [121.81622, 24.83109]]]}}, {"type": "Feature", "properties": {"part": "all", "name_zh": "臺灣（含澎湖、金門、綠島、蘭嶼）", "name_en": "Taiwan incl. Penghu, Kinmen, Green I., Orchid I. (NE 1:10m)", "iso_n3": "158", "n_polygons": 8, "area_km2": 36197}, "geometry": {"type": "MultiPolygon", "coordinates": [[[[121.58942, 22.01454], [121.56782, 22.00778], [121.53902, 22.01792], [121.51382, 22.0348], [121.49941, 22.04831], [121.50302, 22.05675], [121.50302, 22.06688], [121.49941, 22.07533], [121.49221, 22.08208], [121.56782, 22.08208], [121.56782, 22.07533], [121.56422, 22.07195], [121.56062, 22.06351], [121.56062, 22.05338], [121.56422, 22.04493], [121.58222, 22.03142], [121.58942, 22.02298], [121.58942, 22.01454]]], [[[121.49581, 22.67815], [121.49941, 22.67646], [121.50302, 22.66971], [121.49941, 22.6562], [121.49581, 22.64944], [121.49581, 22.64438], [121.49581, 22.63931], [121.49581, 22.63425], [121.49221, 22.63594], [121.48501, 22.63594], [121.48141, 22.63594], [121.48141, 22.63762], [121.47061, 22.641], [121.45981, 22.65958], [121.45621, 22.67308], [121.45621, 22.67646], [121.49581, 22.67815]]], [[[120.1242, 23.55114], [120.0918, 23.4988], [120.0738, 23.4836], [120.063, 23.47178], [120.0486, 23.45827], [120.0378, 23.45152], [120.0198, 23.43801], [120.009, 23.43294], [120.0234, 23.45152], [120.0738, 23.50049], [120.117, 23.54777], [120.1242, 23.55114]]], [[[119.667, 23.54946], [119.6598, 23.55621], [119.6526, 23.56128], [119.6418, 23.56296], [119.6274, 23.55621], [119.6166, 23.55452], [119.6094, 23.55114], [119.6058, 23.54608], [119.6022, 23.53257], [119.5986, 23.52919], [119.5806, 23.51906], [119.5626, 23.51737], [119.5446, 23.52244], [119.5266, 23.53932], [119.5302, 23.54946], [119.541, 23.53764], [119.559, 23.53426], [119.5734, 23.53932], [119.5878, 23.54946], [119.577, 23.55114], [119.5698, 23.55621], [119.5662, 23.56128], [119.559, 23.56972], [119.5554, 23.56634], [119.5554, 23.56465], [119.5518, 23.56296], [119.5518, 23.57647], [119.5518, 23.58998], [119.559, 23.58998], [119.5662, 23.58829], [119.595, 23.60518], [119.613, 23.61024], [119.6094, 23.59505], [119.6058, 23.58998], [119.6202, 23.59505], [119.6346, 23.59336], [119.6418, 23.59336], [119.649, 23.60349], [119.667, 23.5731], [119.6706, 23.55959], [119.667, 23.54946]]], [[[121.81622, 24.83109], [121.80902, 24.80576], [121.80542, 24.77874], [121.80902, 24.75341], [121.81982, 24.69938], [121.81982, 24.68587], [121.81262, 24.67236], [121.81622, 24.64365], [121.82702, 24.62339], [121.85222, 24.60819], [121.88102, 24.60482], [121.88102, 24.59806], [121.87022, 24.59975], [121.85942, 24.59806], [121.84862, 24.59468], [121.84142, 24.58962], [121.85222, 24.57273], [121.85582, 24.55078], [121.85222, 24.53052], [121.83062, 24.5187], [121.82702, 24.51026], [121.83062, 24.50012], [121.83782, 24.49168], [121.84142, 24.48155], [121.83062, 24.47311], [121.80542, 24.46129], [121.78022, 24.43258], [121.78022, 24.42245], [121.78022, 24.39712], [121.77662, 24.38868], [121.77302, 24.38024], [121.76942, 24.3701], [121.76582, 24.34815], [121.76582, 24.3414], [121.76222, 24.33633], [121.75862, 24.33296], [121.76222, 24.3262], [121.76582, 24.32282], [121.76942, 24.31776], [121.77302, 24.31269], [121.77302, 24.30932], [121.76582, 24.30087], [121.74422, 24.28061], [121.72262, 24.2519], [121.70462, 24.2384], [121.69742, 24.23164], [121.70102, 24.22489], [121.69742, 24.21982], [121.67222, 24.20125], [121.66142, 24.1928], [121.65062, 24.17254], [121.63982, 24.13033], [121.61462, 24.09149], [121.60742, 24.07629], [121.60742, 24.06109], [121.61462, 24.04252], [121.62182, 24.03408], [121.62542, 24.0307], [121.62902, 24.02563], [121.62902, 24.0155], [121.62542, 24.00199], [121.61102, 23.98173], [121.60742, 23.96991], [121.60742, 23.94796], [121.59302, 23.89224], [121.57142, 23.83145], [121.53902, 23.69298], [121.52102, 23.65921], [121.47781, 23.43463], [121.46341, 23.34345], [121.45261, 23.32656], [121.42741, 23.29279], [121.41661, 23.27591], [121.40941, 23.25395], [121.40221, 23.21512], [121.40221, 23.17966], [121.39861, 23.14589], [121.38061, 23.11043], [121.37341, 23.10367], [121.35541, 23.09185], [121.34821, 23.08341], [121.34461, 23.07497], [121.33741, 23.0547], [121.31941, 23.026], [121.30861, 22.98041], [121.29781, 22.95845], [121.26181, 22.9078], [121.25461, 22.89766], [121.20421, 22.85714], [121.18981, 22.84363], [121.18981, 22.8335], [121.18981, 22.81155], [121.18981, 22.80142], [121.18621, 22.79128], [121.17901, 22.77946], [121.16101, 22.75751], [121.14301, 22.74232], [121.08181, 22.70348], [121.03861, 22.66295], [121.02781, 22.65789], [121.02061, 22.64776], [121.00261, 22.60048], [120.99181, 22.58359], [120.95941, 22.54813], [120.94861, 22.52618], [120.94141, 22.48396], [120.92341, 22.42486], [120.88741, 22.36576], [120.88021, 22.3455], [120.87661, 22.28978], [120.87661, 22.23743], [120.88021, 22.05506], [120.87301, 22.02974], [120.86221, 22.00947], [120.85141, 22.00103], [120.83701, 21.98752], [120.83701, 21.95713], [120.84061, 21.92504], [120.84061, 21.90478], [120.82261, 21.92842], [120.79741, 21.947], [120.76861, 21.95882], [120.73621, 21.96557], [120.73621, 21.94362], [120.72901, 21.93518], [120.71461, 21.93686], [120.70021, 21.94868], [120.70021, 21.95713], [120.70381, 21.98077], [120.68221, 22.01454], [120.68221, 22.02298], [120.68221, 22.02974], [120.68221, 22.04156], [120.68221, 22.0787], [120.68581, 22.09052], [120.69661, 22.10234], [120.69661, 22.11248], [120.62101, 22.29484], [120.61381, 22.30497], [120.59221, 22.32861], [120.57781, 22.36407], [120.57061, 22.37421], [120.53821, 22.39616], [120.52741, 22.40291], [120.52381, 22.4046], [120.51661, 22.40629], [120.51301, 22.4198], [120.51301, 22.42486], [120.495, 22.43499], [120.459, 22.45188], [120.441, 22.46201], [120.423, 22.47721], [120.4122, 22.48227], [120.4014, 22.48734], [120.3978, 22.48565], [120.3906, 22.48396], [120.3798, 22.48396], [120.333, 22.51942], [120.2862, 22.58021], [120.333, 22.52618], [120.3294, 22.55151], [120.3186, 22.56502], [120.315, 22.57684], [120.2934, 22.59879], [120.2574, 22.62749], [120.2466, 22.64269], [120.2394, 22.65958], [120.2466, 22.67477], [120.2538, 22.68997], [120.2466, 22.71023], [120.2358, 22.7305], [120.2178, 22.75751], [120.1998, 22.79297], [120.1962, 22.80817], [120.1962, 22.8183], [120.2034, 22.83181], [120.2034, 22.84025], [120.1998, 22.84363], [120.1962, 22.84701], [120.1926, 22.85207], [120.189, 22.86052], [120.1782, 22.8774], [120.1746, 22.88416], [120.1674, 22.93144], [120.1638, 22.95339], [120.1566, 22.9669], [120.1422, 22.98041], [120.1602, 22.99223], [120.171, 23.01418], [120.1674, 23.03106], [120.1422, 23.03444], [120.1386, 23.02769], [120.135, 23.01587], [120.1278, 23.00742], [120.1134, 23.00742], [120.1098, 23.01587], [120.1098, 23.03951], [120.1062, 23.04795], [120.0918, 23.0547], [120.0846, 23.04795], [120.0774, 23.03782], [120.0666, 23.03444], [120.0558, 23.04288], [120.0522, 23.05639], [120.0558, 23.06821], [120.0594, 23.07665], [120.0702, 23.08172], [120.0846, 23.08341], [120.0954, 23.08679], [120.099, 23.09692], [120.0954, 23.10198], [120.0594, 23.11043], [120.0594, 23.11718], [120.0882, 23.11718], [120.0846, 23.12731], [120.0702, 23.13913], [120.0594, 23.15095], [120.063, 23.16446], [120.0702, 23.16953], [120.081, 23.1729], [120.0882, 23.18135], [120.0846, 23.19654], [120.0774, 23.20667], [120.081, 23.21681], [120.0882, 23.23031], [120.0954, 23.23876], [120.0954, 23.2472], [120.0954, 23.25564], [120.1098, 23.28604], [120.1134, 23.29279], [120.1242, 23.29448], [120.1098, 23.30292], [120.117, 23.31812], [120.1314, 23.31812], [120.1422, 23.32319], [120.1494, 23.3215], [120.1458, 23.33332], [120.1386, 23.32825], [120.1314, 23.32994], [120.1206, 23.32994], [120.1206, 23.34176], [120.1314, 23.36034], [120.1458, 23.36202], [120.1638, 23.36202], [120.1494, 23.39748], [120.135, 23.42619], [120.1422, 23.4397], [120.1422, 23.44645], [120.1314, 23.45152], [120.1314, 23.45658], [120.1386, 23.46503], [120.1422, 23.47347], [120.1566, 23.49204], [120.1242, 23.49036], [120.1242, 23.52075], [120.1422, 23.53764], [120.1422, 23.59505], [120.1422, 23.63726], [120.153, 23.67272], [120.171, 23.69974], [120.1746, 23.73351], [120.1854, 23.7639], [120.189, 23.77404], [120.2142, 23.80274], [120.2178, 23.81287], [120.2178, 23.81794], [120.2394, 23.83314], [120.2466, 23.84327], [120.2538, 23.8686], [120.2574, 23.87873], [120.2862, 23.90237], [120.2934, 23.9125], [120.3042, 23.93952], [120.3186, 23.96653], [120.3402, 24.02226], [120.351, 24.03745], [120.3618, 24.04927], [120.3726, 24.05434], [120.3798, 24.05772], [120.387, 24.06278], [120.387, 24.07291], [120.3906, 24.08305], [120.4122, 24.09655], [120.4158, 24.10669], [120.4194, 24.14215], [120.423, 24.15228], [120.4338, 24.16072], [120.477, 24.20631], [120.477, 24.20969], [120.4806, 24.22151], [120.4914, 24.22995], [120.50221, 24.25359], [120.51301, 24.29581], [120.54901, 24.35153], [120.55981, 24.3853], [120.57061, 24.40556], [120.62101, 24.45622], [120.64981, 24.48324], [120.65701, 24.49844], [120.66061, 24.52039], [120.66781, 24.54065], [120.68941, 24.57611], [120.69661, 24.59806], [120.70381, 24.60651], [120.72901, 24.61326], [120.73621, 24.6217], [120.73981, 24.63015], [120.74341, 24.63859], [120.76141, 24.65379], [120.77941, 24.66561], [120.80101, 24.67067], [120.82621, 24.66561], [120.82261, 24.68587], [120.83341, 24.69769], [120.84781, 24.7112], [120.85501, 24.73146], [120.85861, 24.73653], [120.87301, 24.74328], [120.87661, 24.76185], [120.89821, 24.80069], [120.90541, 24.81082], [120.90901, 24.81758], [120.90901, 24.82264], [120.90541, 24.8294], [120.90181, 24.83615], [120.90901, 24.84628], [120.91621, 24.85304], [120.91981, 24.86148], [120.92341, 24.87499], [120.92701, 24.88512], [120.93421, 24.89525], [120.94501, 24.90201], [120.95221, 24.90538], [120.95221, 24.90876], [120.95581, 24.91889], [120.96301, 24.94084], [120.97021, 24.95097], [121.00621, 24.99994], [121.03141, 25.02865], [121.06021, 25.0506], [121.12861, 25.07086], [121.14661, 25.081], [121.16101, 25.09113], [121.17541, 25.09957], [121.21141, 25.11139], [121.28701, 25.12321], [121.33021, 25.12996], [121.34821, 25.13672], [121.37341, 25.15529], [121.37701, 25.15867], [121.38781, 25.15867], [121.39861, 25.15867], [121.41301, 25.15529], [121.42021, 25.14685], [121.42381, 25.13672], [121.43101, 25.13165], [121.44181, 25.13672], [121.43101, 25.15529], [121.40581, 25.17556], [121.39501, 25.18231], [121.39861, 25.19244], [121.40581, 25.19751], [121.41301, 25.20088], [121.41661, 25.20426], [121.42381, 25.22115], [121.43461, 25.24141], [121.45981, 25.26167], [121.49941, 25.27856], [121.53902, 25.287], [121.58222, 25.28362], [121.59662, 25.2718], [121.63622, 25.22284], [121.65062, 25.19751], [121.65422, 25.1992], [121.66502, 25.20088], [121.67582, 25.20257], [121.68302, 25.20088], [121.68302, 25.19751], [121.67942, 25.19244], [121.67582, 25.18738], [121.67582, 25.17893], [121.67942, 25.17556], [121.69382, 25.16542], [121.69742, 25.16205], [121.70462, 25.15698], [121.71902, 25.15192], [121.89182, 25.11308], [121.90622, 25.10632], [121.89902, 25.0945], [121.89902, 25.08437], [121.89902, 25.0658], [121.90982, 25.0354], [121.92062, 25.0219], [121.92782, 25.01852], [121.95302, 25.0219], [121.96742, 25.0219], [121.98182, 25.01683], [121.99622, 25.01007], [122.00702, 25.00163], [121.92782, 24.96617], [121.90622, 24.94929], [121.83422, 24.87161], [121.82342, 24.85473], [121.81622, 24.83109]]], [[[119.5158, 23.63726], [119.5086, 23.6322], [119.5014, 23.62038], [119.49059, 23.58998], [119.49059, 23.58323], [119.49419, 23.57647], [119.49059, 23.57141], [119.47979, 23.56972], [119.47259, 23.56972], [119.46539, 23.56803], [119.46179, 23.56634], [119.45819, 23.56296], [119.44379, 23.56296], [119.44379, 23.56972], [119.45099, 23.57478], [119.45819, 23.57647], [119.46539, 23.57647], [119.47619, 23.57985], [119.47619, 23.5866], [119.47619, 23.60349], [119.49059, 23.63895], [119.5014, 23.65077], [119.5158, 23.63726]]], [[[119.5446, 23.66428], [119.5662, 23.67948], [119.5806, 23.67272], [119.5914, 23.66428], [119.595, 23.65246], [119.5878, 23.6457], [119.5914, 23.6322], [119.5842, 23.62544], [119.577, 23.62206], [119.5734, 23.62713], [119.5698, 23.63895], [119.5626, 23.64908], [119.5446, 23.66428]]], [[[118.46818, 24.46129], [118.46458, 24.43089], [118.45018, 24.4157], [118.42138, 24.43089], [118.40338, 24.43596], [118.37458, 24.43258], [118.34578, 24.41738], [118.33138, 24.39712], [118.31698, 24.39037], [118.30258, 24.39712], [118.29178, 24.39712], [118.28458, 24.4005], [118.28098, 24.40894], [118.28098, 24.41063], [118.28818, 24.42076], [118.29178, 24.42583], [118.29178, 24.43258], [118.29178, 24.44102], [118.28818, 24.45622], [118.28458, 24.46973], [118.28098, 24.47817], [118.28818, 24.47986], [118.31698, 24.49337], [118.35658, 24.46973], [118.38178, 24.47311], [118.38538, 24.5035], [118.39258, 24.52208], [118.42138, 24.52714], [118.45018, 24.50519], [118.46818, 24.46129]]]]}}]}