{"type": "FeatureCollection", "properties": {"source": "Natural Earth 1:10m Admin-0 countries v4.1.0 via world-atlas@2 (countries-10m.json), public domain", "crs": "EPSG:4326 (lon, lat degrees)"}, "features": [{"type": "Feature", "properties": {"part": "main_island", "level": "simplified 0.8 km", "n_vertices": 144}, "geometry": {"type": "Polygon", "coordinates": [[[121.83422, 24.87161], [121.80542, 24.77874], [121.81982, 24.69938], [121.81622, 24.64365], [121.82702, 24.62339], [121.88102, 24.59806], [121.84142, 24.58962], [121.85222, 24.53052], [121.82702, 24.51026], [121.84142, 24.48155], [121.78022, 24.43258], [121.75862, 24.33296], [121.77302, 24.30932], [121.66142, 24.1928], [121.60742, 24.07629], [121.62902, 24.0155], [121.52102, 23.65921], [121.46341, 23.34345], [121.40941, 23.25395], [121.39861, 23.14589], [121.38061, 23.11043], [121.34821, 23.08341], [121.29781, 22.95845], [121.25461, 22.89766], [121.18981, 22.84363], [121.17901, 22.77946], [121.02781, 22.65789], [121.00261, 22.60048], [120.94861, 22.52618], [120.92341, 22.42486], [120.88021, 22.3455], [120.88021, 22.05506], [120.86221, 22.00947], [120.83701, 21.98752], [120.84061, 21.90478], [120.82261, 21.92842], [120.76861, 21.95882], [120.73621, 21.96557], [120.73621, 21.94362], [120.71461, 21.93686], [120.70021, 21.94868], [120.70381, 21.98077], [120.68221, 22.01454], [120.68221, 22.0787], [120.69661, 22.11248], [120.62101, 22.29484], [120.57061, 22.37421], [120.51661, 22.40629], [120.51301, 22.42486], [120.4014, 22.48734], [120.3798, 22.48396], [120.333, 22.51942], [120.2862, 22.58021], [120.333, 22.52618], [120.315, 22.57684], [120.2574, 22.62749], [120.2394, 22.65958], [120.2538, 22.68997], [120.1998, 22.79297], [120.2034, 22.84025], [120.1746, 22.88416], [120.1638, 22.95339], [120.1422, 22.98041], [120.1602, 22.99223], [120.1674, 23.03106], [120.1422, 23.03444], [120.1278, 23.00742], [120.1134, 23.00742], [120.1062, 23.04795], [120.0918, 23.0547], [120.0666, 23.03444], [120.0558, 23.04288], [120.0594, 23.07665], [120.0954, 23.08679], [120.099, 23.09692], [120.0594, 23.11043], [120.0882, 23.11718], [120.0594, 23.15095], [120.063, 23.16446], [120.0882, 23.18135], [120.0774, 23.20667], [120.1134, 23.29279], [120.1242, 23.29448], [120.1098, 23.30292], [120.117, 23.31812], [120.1494, 23.3215], [120.1458, 23.33332], [120.1206, 23.32994], [120.1206, 23.34176], [120.1314, 23.36034], [120.1638, 23.36202], [120.135, 23.42619], [120.1422, 23.44645], [120.1314, 23.45152], [120.1566, 23.49204], [120.1242, 23.49036], [120.1242, 23.52075], [120.1422, 23.53764], [120.1422, 23.63726], [120.189, 23.77404], [120.2466, 23.84327], [120.2574, 23.87873], [120.2934, 23.9125], [120.3402, 24.02226], [120.4122, 24.09655], [120.423, 24.15228], [120.4914, 24.22995], [120.57061, 24.40556], [120.64981, 24.48324], [120.69661, 24.59806], [120.72901, 24.61326], [120.77941, 24.66561], [120.82621, 24.66561], [120.82261, 24.68587], [120.87301, 24.74328], [120.90901, 24.81758], [120.90181, 24.83615], [120.92701, 24.88512], [120.95221, 24.90538], [120.96301, 24.94084], [121.00621, 24.99994], [121.06021, 25.0506], [121.21141, 25.11139], [121.33021, 25.12996], [121.37701, 25.15867], [121.41301, 25.15529], [121.43101, 25.13165], [121.44181, 25.13672], [121.43101, 25.15529], [121.39501, 25.18231], [121.43461, 25.24141], [121.49941, 25.27856], [121.58222, 25.28362], [121.65062, 25.19751], [121.68302, 25.20088], [121.67582, 25.17893], [121.70462, 25.15698], [121.90622, 25.10632], [121.89902, 25.0658], [121.92062, 25.0219], [121.96742, 25.0219], [122.00702, 25.00163], [121.90622, 24.94929], [121.83422, 24.87161]]]}}, {"type": "Feature", "properties": {"part": "main_island_ring", "purpose": "closed path for stroke draw-on, starts near the northern tip", "n_vertices": 144, "length_km": 1010.9}, "geometry": {"type": "LineString", "coordinates": [[121.58222, 25.28362], [121.65062, 25.19751], [121.68302, 25.20088], [121.67582, 25.17893], [121.70462, 25.15698], [121.90622, 25.10632], [121.89902, 25.0658], [121.92062, 25.0219], [121.96742, 25.0219], [122.00702, 25.00163], [121.90622, 24.94929], [121.83422, 24.87161], [121.80542, 24.77874], [121.81982, 24.69938], [121.81622, 24.64365], [121.82702, 24.62339], [121.88102, 24.59806], [121.84142, 24.58962], [121.85222, 24.53052], [121.82702, 24.51026], [121.84142, 24.48155], [121.78022, 24.43258], [121.75862, 24.33296], [121.77302, 24.30932], [121.66142, 24.1928], [121.60742, 24.07629], [121.62902, 24.0155], [121.52102, 23.65921], [121.46341, 23.34345], [121.40941, 23.25395], [121.39861, 23.14589], [121.38061, 23.11043], [121.34821, 23.08341], [121.29781, 22.95845], [121.25461, 22.89766], [121.18981, 22.84363], [121.17901, 22.77946], [121.02781, 22.65789], [121.00261, 22.60048], [120.94861, 22.52618], [120.92341, 22.42486], [120.88021, 22.3455], [120.88021, 22.05506], [120.86221, 22.00947], [120.83701, 21.98752], [120.84061, 21.90478], [120.82261, 21.92842], [120.76861, 21.95882], [120.73621, 21.96557], [120.73621, 21.94362], [120.71461, 21.93686], [120.70021, 21.94868], [120.70381, 21.98077], [120.68221, 22.01454], [120.68221, 22.0787], [120.69661, 22.11248], [120.62101, 22.29484], [120.57061, 22.37421], [120.51661, 22.40629], [120.51301, 22.42486], [120.4014, 22.48734], [120.3798, 22.48396], [120.333, 22.51942], [120.2862, 22.58021], [120.333, 22.52618], [120.315, 22.57684], [120.2574, 22.62749], [120.2394, 22.65958], [120.2538, 22.68997], [120.1998, 22.79297], [120.2034, 22.84025], [120.1746, 22.88416], [120.1638, 22.95339], [120.1422, 22.98041], [120.1602, 22.99223], [120.1674, 23.03106], [120.1422, 23.03444], [120.1278, 23.00742], [120.1134, 23.00742], [120.1062, 23.04795], [120.0918, 23.0547], [120.0666, 23.03444], [120.0558, 23.04288], [120.0594, 23.07665], [120.0954, 23.08679], [120.099, 23.09692], [120.0594, 23.11043], [120.0882, 23.11718], [120.0594, 23.15095], [120.063, 23.16446], [120.0882, 23.18135], [120.0774, 23.20667], [120.1134, 23.29279], [120.1242, 23.29448], [120.1098, 23.30292], [120.117, 23.31812], [120.1494, 23.3215], [120.1458, 23.33332], [120.1206, 23.32994], [120.1206, 23.34176], [120.1314, 23.36034], [120.1638, 23.36202], [120.135, 23.42619], [120.1422, 23.44645], [120.1314, 23.45152], [120.1566, 23.49204], [120.1242, 23.49036], [120.1242, 23.52075], [120.1422, 23.53764], [120.1422, 23.63726], [120.189, 23.77404], [120.2466, 23.84327], [120.2574, 23.87873], [120.2934, 23.9125], [120.3402, 24.02226], [120.4122, 24.09655], [120.423, 24.15228], [120.4914, 24.22995], [120.57061, 24.40556], [120.64981, 24.48324], [120.69661, 24.59806], [120.72901, 24.61326], [120.77941, 24.66561], [120.82621, 24.66561], [120.82261, 24.68587], [120.87301, 24.74328], [120.90901, 24.81758], [120.90181, 24.83615], [120.92701, 24.88512], [120.95221, 24.90538], [120.96301, 24.94084], [121.00621, 24.99994], [121.06021, 25.0506], [121.21141, 25.11139], [121.33021, 25.12996], [121.37701, 25.15867], [121.41301, 25.15529], [121.43101, 25.13165], [121.44181, 25.13672], [121.43101, 25.15529], [121.39501, 25.18231], [121.43461, 25.24141], [121.49941, 25.27856], [121.58222, 25.28362]]}}]}